Zip,City,Latitude,Longitude
75475,Randolph,33.485315,-96.25525
75757,Bullard,32.136787,-95.3671
78650,McDade,30.283941,-97.23563
75010,Carrollton,33.030556,-96.89328
76054,Hurst,32.858398,-97.17681
75961,Nacogdoches,31.626011,-94.60338
76452,Energy,31.758351,-98.40613
76855,Lowake,31.333614,-99.85837
78349,Concepcion,27.316167,-98.29797
79381,Wilson,33.327782,-101.76906
77590,Texas City,29.395283,-94.91759
78013,Comfort,29.972473,-98.91084
79917,El Paso,31.694842,-106.299987
78148,Universal City,29.550223,-98.29936
78588,San Isidro,26.720155,-98.46845
79370,Spur,33.478848,-100.89669
75075,Plano,33.024721,-96.74038
79080,Skellytown,35.655035,-101.22477
77046,Houston,29.733181,-95.43131
77581,Pearland,29.56218,-95.26982
75712,Tyler,32.411237,-95.289903
75756,Brownsboro,32.306045,-95.60507
75294,Dallas,32.767268,-96.777626
76503,Temple,31.053986,-97.320306
77015,Houston,29.778526,-95.18118
77550,Galveston,29.298448,-94.79316
78041,Laredo,27.542244,-99.49233
78011,Charlotte,28.795637,-98.71951
78701,Austin,30.27127,-97.74103
79541,Ovalo,32.151983,-99.84483
79560,Sylvester,32.684029,-100.1998
76067,Mineral Wells,32.810275,-98.10707
76476,Tolar,32.387648,-97.93959
76561,Oglesby,31.430323,-97.52946
76066,Millsap,32.715412,-98.00165
75459,Howe,33.518979,-96.63523
75904,Lufkin,31.339891,-94.76295
77289,Houston,29.83399,-95.434241
76857,May,31.917862,-98.95325
76878,Santa Anna,31.722813,-99.2959
77478,Sugar Land,29.627737,-95.62444
77834,Brenham,30.231333,-96.290358
76683,Riesel,31.503892,-97.179773
76841,Fort McKavett,30.834326,-100.09843
78827,Asherton,28.442081,-99.76064
75105,Chatfield,32.241963,-96.37917
75615,Longview,32.51121,-94.783493
78237,San Antonio,29.422583,-98.56584
78146,Pettus,28.615464,-97.81591
77481,Thompsons,29.478032,-95.58329
77976,Nursery,28.954273,-97.090604
78545,Falcon Heights,26.561861,-99.13392
79915,El Paso,31.743038,-106.36957
79935,El Paso,31.784541,-106.33705
75929,Broaddus,31.242362,-94.17675
75939,Corrigan,30.998982,-94.7994
77592,Texas City,29.330501,-94.800238
78211,San Antonio,29.362185,-98.54644
78555,McAllen,26.250709,-97.711367
79535,Maryneal,32.249241,-100.449
79852,Terlingua,29.441286,-103.63643
75607,Longview,32.51121,-94.783493
78705,Austin,30.292424,-97.73856
78522,Brownsville,26.188911,-97.764271
77072,Houston,29.700898,-95.59002
77905,Victoria,28.737085,-97.0146
78338,Armstrong,26.870238,-97.77433
79410,Lubbock,33.570135,-101.88901
79529,Knox City,33.423156,-99.82014
79561,Trent,32.504094,-100.15822
76933,Bronte,31.887436,-100.28655
77631,Orange,30.054793,-93.903108
78940,Fayetteville,29.941521,-96.65977
79761,Odessa,31.854455,-102.35906
79961,El Paso,31.694842,-106.299987
75980,Zavalla,31.154673,-94.363
76040,Euless,32.826172,-97.09721
76048,Granbury,32.424695,-97.78894
76642,Groesbeck,31.510726,-96.51529
76854,London,30.646698,-99.54107
79980,El Paso,31.694842,-106.299987
76648,Hubbard,31.84121,-96.80817
77216,Houston,29.83399,-95.434241
76107,Fort Worth,32.738481,-97.38424
77347,Humble,29.83399,-95.434241
79740,Girvin,31.019602,-102.47675
78066,Rio Medina,29.466279,-98.89162
75255,Dallas,32.669783,-96.614921
75477,Roxton,33.543006,-95.72382
75791,Whitehouse,32.226082,-95.21751
77901,Victoria,28.806417,-96.99356
78155,Seguin,29.56478,-97.96283
79229,Dickens,33.654512,-100.75517
75094,Plano,33.009681,-96.61113
75374,Dallas,32.767268,-96.777626
75960,Moscow,30.903688,-94.80916
78278,San Antonio,29.437532,-98.461582
79940,El Paso,31.694842,-106.299987
76179,Fort Worth,32.876475,-97.41249
77969,La Salle,28.77203,-96.63732
79556,Sweetwater,32.465621,-100.39814
75016,Irving,32.767268,-96.777626
76385,Vernon,34.146356,-99.214088
77320,Huntsville,30.805099,-95.50719
77449,Katy,29.825908,-95.7301
76651,Italy,32.175783,-96.88018
77353,Magnolia,30.180626,-95.70925
77989,Thomaston,28.997449,-97.153868
79942,El Paso,31.694842,-106.299987
75947,Geneva,31.373062,-93.821948
76557,Moody,31.29697,-97.38491
76691,West,31.783019,-97.07945
78727,Austin,30.425652,-97.71419
79831,Alpine,30.349136,-103.69271
79259,Tell,34.391847,-100.40597
79329,Idalou,33.701827,-101.69093
75839,Elkhart,31.627557,-95.53225
79093,Waka,36.280101,-101.04673
76137,Fort Worth,32.86814,-97.28566
78467,Corpus Christi,27.777,-97.463213
78540,Edinburg,26.319405,-98.190922
78594,Sebastian,26.344765,-97.80031
78762,Austin,30.326374,-97.771258
79906,El Paso,31.809263,-106.43081
78147,Poth,29.072412,-98.07786
79763,Odessa,31.817344,-102.42315
76304,Wichita Falls,33.931024,-98.499077
76573,Schwertner,30.805512,-97.470456
76258,Pilot Point,33.385645,-96.95213
76639,Dawson,31.881324,-96.70164
77034,Houston,29.63643,-95.21789
77872,North Zulch,30.892212,-96.10346
78620,Dripping Springs,30.24108,-98.10753
79078,Sanford,35.71177,-101.54716
75564,Lodi,32.880182,-94.27725
78021,Fowlerton,28.52856,-98.80845
76345,Fort Worth,32.38253,-98.404816
78002,Atascosa,29.288108,-98.72878
79567,Winters,31.965685,-99.93471
75149,Mesquite,32.767329,-96.60759
75185,Mesquite,32.740332,-96.561846
79948,El Paso,31.694842,-106.299987
75119,Ennis,32.331239,-96.61962
76842,Fredonia,30.92753,-99.08975
78062,Peggy,28.919999,-98.552942
78628,Georgetown,30.674349,-97.72338
77003,Houston,29.749278,-95.34741
77419,Blessing,28.872088,-96.2316
78541,Edinburg,26.319427,-98.154881
79053,Lazbuddie,34.39174,-102.60242
79240,Lelia Lake,34.896396,-100.76721
77217,Houston,29.83399,-95.434241
77491,Katy,29.83399,-95.434241
75046,Garland,32.767268,-96.777626
76204,Denton,33.20743,-97.116282
77704,Beaumont,30.12355,-94.153941
78074,Waring,29.950969,-98.79093
78538,Edcouch,26.344688,-97.96961
78933,Cat Spring,29.773128,-96.39342
79846,Redford,29.444333,-104.11628
88561,El Paso,31.694842,-106.299987
78250,San Antonio,29.510204,-98.66784
76450,Graham,33.081863,-98.60091
78383,Sandia,28.066598,-97.92891
78860,El Indio,28.513787,-100.31647
76432,Blanket,31.82741,-98.80286
76239,Forestburg,33.530807,-97.54944
77263,Houston,29.83399,-95.434241
78763,Austin,30.335398,-97.559807
79952,El Paso,31.694842,-106.299987
78150,Universal City,29.437532,-98.461582
78715,Austin,30.450088,-97.486509
77479,Sugar Land,29.573345,-95.63213
78019,Encinal,28.062471,-99.4289
76384,Vernon,34.142094,-99.29649
75763,Frankston,32.072339,-95.50433
76366,Holliday,33.760814,-98.72148
76501,Temple,31.093215,-97.31086
77042,Houston,29.741565,-95.55996
76686,Tehuacana,31.752538,-96.54327
77091,Houston,29.852975,-95.43586
78463,Corpus Christi,27.777,-97.463213
76549,Killeen,31.084108,-97.79149
78871,Langtry,29.763171,-101.230032
76801,Brownwood,31.73003,-99.00605
79258,South Plains,34.071514,-101.30313
79607,Dyess AFB,32.417269,-99.82203
78480,Corpus Christi,27.777,-97.463213
79330,Justiceburg,33.04993,-101.14146
79261,Turkey,34.408268,-100.87132
77865,Marquez,31.222211,-96.24043
78295,San Antonio,29.437532,-98.461582
79839,Fort Hancock,31.270689,-105.6653
78027,Kendalia,30.002501,-98.57124
78414,Corpus Christi,27.672334,-97.37051
77037,Houston,29.885451,-95.39552
78015,Boerne,29.743603,-98.64854
78570,Mercedes,26.169728,-97.91232
78652,Manchaca,30.12848,-97.8438
79992,El Paso,31.694842,-106.299987
75138,Duncanville,32.767268,-96.777626
88578,El Paso,31.694842,-106.299987
78224,San Antonio,29.333436,-98.53934
78504,Mcallen,26.26273,-98.23082
76065,Midlothian,32.484094,-96.98672
76177,Fort Worth,32.949819,-97.31406
88511,El Paso,31.694842,-106.299987
75645,Gilmer,32.690553,-94.863311
79378,Wellman,33.037656,-102.44248
79546,Rotan,32.87144,-100.46635
75402,Greenville,33.082411,-96.08977
75504,Texarkana,33.476552,-94.39495
78291,San Antonio,29.437532,-98.461582
78627,Georgetown,30.673597,-97.646143
79027,Dimmitt,34.539266,-102.37108
75882,Palestine,31.794191,-95.661964
77093,Houston,29.862024,-95.33967
77447,Hockley,30.065152,-95.8144
75074,Plano,33.028921,-96.68102
77555,Galveston,29.330501,-94.800238
78660,Pflugerville,30.450122,-97.623
78745,Austin,30.207559,-97.79575
79323,Denver City,32.976623,-102.84661
79749,Lenorah,32.255909,-101.81824
75440,Emory,32.882305,-95.73842
76420,Albany,33.036724,-98.595422
76710,Waco,31.535916,-97.18588
76373,Oklaunion,34.147838,-99.11818
77974,Meyersville,28.897693,-97.29589
78049,Laredo,27.732094,-99.505138
79997,El Paso,31.694842,-106.299987
77068,Houston,30.007886,-95.48532
77293,Houston,29.83399,-95.434241
75252,Dallas,32.998132,-96.79088
79602,Abilene,32.40769,-99.72107
88536,El Paso,31.694842,-106.299987
77663,Village Mills,30.520625,-94.43631
78850,D Hanis,29.334701,-99.33534
79052,Kress,34.356732,-101.76769
79538,Novice,32.011087,-99.63167
79930,El Paso,31.803457,-106.45758
75275,Dallas,32.767268,-96.777626
75507,Texarkana,33.393447,-94.340437
88542,El Paso,31.694842,-106.299987
78536,Delmita,26.421394,-98.848757
79925,El Paso,31.782408,-106.36353
76675,Otto,31.416468,-96.81813
76832,Cherokee,30.98609,-98.67201
77004,Houston,29.728779,-95.3657
77517,Santa Fe,29.382307,-95.12768
88584,El Paso,31.694842,-106.299987
78759,Austin,30.406169,-97.75743
78201,San Antonio,29.466781,-98.52519
78665,Sandy,30.219829,-98.358613
78774,Austin,30.326374,-97.771258
79741,Goldsmith,31.983989,-102.64729
76306,Wichita Falls,33.942496,-98.51923
76936,Eldorado,30.860483,-100.53988
77726,Beaumont,30.111843,-94.190147
75011,Carrollton,32.767268,-96.777626
75202,Dallas,32.77988,-96.80502
75641,Easton,32.382771,-94.57945
75163,Trinidad,32.17548,-96.10935
75392,Dallas,32.767268,-96.777626
75550,Annona,33.530829,-94.90585
76862,Millersview,31.445119,-99.70831
77344,Huntsville,30.78128,-95.59527
88557,El Paso,31.694842,-106.299987
78561,Lasara,26.561287,-97.429952
79106,Amarillo,35.204652,-101.88353
76902,San Angelo,31.39577,-100.68959
77482,Van Vleck,29.035651,-95.89207
79734,Fort Davis,30.626134,-103.98274
79998,El Paso,31.694842,-106.299987
78578,Port Isabel,26.080434,-97.25024
78963,West Point,29.930184,-97.0269
77074,Houston,29.689781,-95.51161
79705,Midland,32.029022,-102.08618
77612,Buna,30.433087,-93.96897
77030,Houston,29.704584,-95.40466
75978,Woden,31.502292,-94.52803
79758,Gardendale,32.020274,-102.35512
76431,Chico,33.293652,-97.8597
79008,Borger,35.631621,-101.599447
75355,Dallas,32.767268,-96.777626
75389,Dallas,32.767268,-96.777626
78932,Carmine,30.141287,-96.6909
78053,McCoy,28.906103,-98.2802
78126,San Antonio,29.55302,-98.486871
79016,Canyon,34.96539,-101.895894
79256,Roaring Springs,33.915528,-100.81731
78042,Laredo,27.565464,-99.476792
78219,San Antonio,29.448379,-98.39908
78475,Corpus Christi,27.777,-97.463213
79311,Abernathy,33.857895,-101.88156
78703,Austin,30.290907,-97.76277
79239,Lakeview,34.637427,-100.76388
78341,Benavides,27.592468,-98.414188
75657,Jefferson,32.768011,-94.34908
76034,Colleyville,32.885062,-97.14923
78607,Bluffton,30.833543,-98.47938
78614,Cost,29.406434,-97.5869
76539,Kempner,31.071352,-97.97615
88520,El Paso,31.694842,-106.299987
78638,Kingsbury,29.655639,-97.77219
79021,Cotton Center,33.980231,-102.02668
79046,Higgins,36.113986,-100.09235
79235,Floydada,33.941748,-101.30072
78214,San Antonio,29.363335,-98.49049
75116,Duncanville,32.658384,-96.91265
75132,Fate,32.941014,-96.38095
77489,Missouri City,29.601141,-95.51772
78535,Combes,26.245051,-97.74157
79185,Amarillo,35.401475,-101.895089
79936,El Paso,31.766355,-106.29828
79372,Sundown,33.45798,-102.48829
78587,La Victoria,26.316452,-98.639793
78648,Luling,29.694257,-97.6533
75356,Dallas,32.767268,-96.777626
76129,Fort Worth,32.771419,-97.291484
78569,Lyford,26.39381,-97.7113
75050,Grand Prairie,32.759922,-97.01216
75270,Dallas,32.78133,-96.80198
75416,Blossom,33.675155,-95.37293
76869,Pontotoc,30.909853,-98.98395
78043,Laredo,27.538658,-99.38274
78537,Donna,26.165352,-98.05568
78655,Martindale,29.838163,-97.84178
79502,Aspermont,33.151713,-100.25449
78639,Kingsland,30.663209,-98.44588
76909,San Angelo,31.39577,-100.68959
77505,Pasadena,29.650492,-95.14632
75762,Flint,32.207845,-95.41859
75954,Joaquin,31.95015,-94.05761
76008,Aledo,32.690922,-97.64013
76191,Fort Worth,32.771419,-97.291484
76531,Hamilton,31.696154,-98.14834
77413,Barker,29.83399,-95.434241
77432,Danevang,29.064542,-96.21454
75977,Wiergate,31.038417,-93.80057
76351,Archer City,33.574426,-98.63462
76540,Killeen,31.085833,-97.357099
77651,Port Neches,29.980863,-93.96038
78124,Marion,29.570379,-98.14606
78261,San Antonio,29.698045,-98.42624
75474,Quinlan,32.896295,-96.06999
75976,Wells,31.506076,-94.94939
77059,Houston,29.601776,-95.11734
79223,Cee Vee,34.216509,-100.47198
79368,Seminole,33.044702,-102.099276
79851,Sierra Blanca,31.182009,-105.34084
75642,Elysian Fields,32.386275,-94.210541
75831,Buffalo,31.453732,-96.03725
75844,Grapeland,31.505916,-95.46315
76253,Myra,33.624401,-97.31704
78626,Georgetown,30.643058,-97.64713
76114,Fort Worth,32.781329,-97.40099
78070,Spring Branch,29.898176,-98.40135
76227,Aubrey,33.274761,-96.99457
76363,Goree,33.481208,-99.51447
76795,Waco,31.553646,-97.203166
88587,El Paso,31.694842,-106.299987
78881,Sabinal,29.361493,-99.50497
79382,Wolfforth,33.483465,-102.02033
79772,Pecos,31.388404,-103.52515
76013,Arlington,32.721632,-97.14698
76367,Iowa Park,33.958681,-98.68492
77446,Prairie View,30.082131,-95.99178
77212,Houston,29.83399,-95.434241
78934,Columbus,29.712052,-96.56134
77412,Altair,29.575183,-96.46831
75160,Terrell,32.747747,-96.28923
75220,Dallas,32.867977,-96.86306
76004,Arlington,32.771419,-97.291484
79937,El Paso,31.694842,-106.299987
77291,Houston,29.83399,-95.434241
78653,Manor,30.351225,-97.54731
79748,Knott,32.388962,-101.66373
78960,Warda,30.070257,-96.91939
77420,Boling,29.249812,-95.92241
77973,Mcfaddin,28.532052,-96.9902
76357,Byers,34.06722,-98.18119
75448,Klondike,33.31215,-95.81737
78565,Los Ebanos,26.247488,-98.55962
78017,Dilley,28.728991,-99.23388
78268,San Antonio,29.437532,-98.461582
76199,Fort Worth,32.771419,-97.291484
78630,Cedar Park,30.656817,-97.602552
78635,Hye,30.217838,-98.53788
78833,Camp Wood,29.664428,-99.99968
76096,Arlington,32.771419,-97.291484
75024,Plano,33.07707,-96.79859
75013,Allen,33.106582,-96.69402
78135,New Braunfels,29.738502,-98.087157
79713,Ackerly,32.520297,-101.73528
77808,Bryan,30.762815,-96.31744
78754,Austin,30.354234,-97.64679
79073,Plainview,34.068903,-101.826997
79983,El Paso,31.694842,-106.299987
75069,McKinney,33.195073,-96.60363
75647,Gladewater,32.531814,-94.94358
77275,Houston,29.83399,-95.434241
75103,Canton,32.532449,-95.88
75161,Terrell,32.727366,-96.187
77253,Houston,29.83399,-95.434241
76202,Denton,33.225523,-97.108546
76527,Florence,30.833293,-97.8049
77852,Deanville,30.513118,-96.618047
78104,Beeville,28.393116,-97.776017
78393,Woodsboro,28.206223,-97.30778
78712,Austin,30.285207,-97.735394
75234,Dallas,32.925975,-96.88322
76093,Rio Vista,32.220267,-97.39036
76103,Fort Worth,32.745681,-97.26563
76435,Carbon,32.236449,-98.83268
77520,Baytown,29.74877,-94.94389
78347,Chapman Ranch,27.593816,-97.46214
75938,Colmesneil,30.916106,-94.35108
76455,Gustine,31.833414,-98.37248
77487,Sugar Land,29.525461,-95.756462
76701,Waco,31.551955,-97.13833
78751,Austin,30.310707,-97.723
79562,Tuscola,32.230821,-99.90025
77418,Bellville,29.983095,-96.26843
76360,Electra,33.963228,-98.97235
77435,East Bernard,29.520049,-96.08527
78947,Lexington,30.414806,-97.03904
75047,Garland,32.767268,-96.777626
75048,Garland,32.975723,-96.58661
75704,Tyler,32.388631,-95.41373
88576,El Paso,31.694842,-106.299987
75368,Dallas,32.767268,-96.777626
78752,Austin,30.332506,-97.70571
79101,Amarillo,35.206402,-101.83924
79735,Fort Stockton,30.877528,-102.852
79326,Fieldton,34.04877,-102.20958
75014,Irving,32.767268,-96.777626
77228,Houston,29.83399,-95.434241
78025,Ingram,30.102854,-99.27685
75434,Cunningham,33.423626,-95.3567
79243,Mcadoo,33.787306,-100.98464
75215,Dallas,32.76103,-96.77035
76354,Burkburnett,34.085289,-98.58881
79166,Amarillo,35.401475,-101.895089
88523,El Paso,31.694842,-106.299987
77578,Manvel,29.487395,-95.35807
77880,Washington,30.281022,-96.16922
76664,Mart,31.549368,-96.8233
77624,Hillister,30.664543,-94.30391
79718,Balmorhea,30.966245,-103.73108
88533,El Paso,31.694842,-106.299987
75975,Timpson,31.903614,-94.40775
79409,Lubbock,33.610018,-101.821292
79534,McCaulley,32.766833,-100.21048
76012,Arlington,32.752048,-97.13514
76251,Montague,33.660084,-97.71727
77255,Houston,29.83399,-95.434241
77382,Spring,30.214741,-95.53212
77546,Friendswood,29.516873,-95.19472
79739,Garden City,31.807661,-101.51475
77960,Fannin,28.694847,-97.24182
79091,Umbarger,34.938094,-102.11087
77001,Houston,29.813142,-95.309789
78246,San Antonio,29.437532,-98.461582
88529,El Paso,31.694842,-106.299987
88539,El Paso,31.694842,-106.299987
75789,Troup,32.137225,-95.10105
77430,Damon,29.290602,-95.70739
77983,Seadrift,28.405373,-96.70325
76245,Gordonville,33.842878,-96.82348
79977,El Paso,31.694842,-106.299987
76031,Cleburne,32.343115,-97.40081
76932,Big Lake,31.304669,-101.50841
77339,Humble,30.053368,-95.21807
78340,Bayside,28.103283,-97.20757
88524,El Paso,31.694842,-106.299987
75231,Dallas,32.874317,-96.74764
78592,Santa Maria,26.078355,-97.84169
79719,Barstow,31.461562,-103.39895
76530,Granger,30.715207,-97.43449
76558,Mound,31.351386,-97.644352
75251,Dallas,32.919104,-96.77497
75771,Lindale,32.522902,-95.42126
77208,Houston,29.83399,-95.434241
78056,Mico,29.54825,-98.90353
76555,Maysfield,30.784169,-96.96376
78331,Alice,27.750684,-98.082694
78563,Linn,26.633158,-98.21578
75044,Garland,32.960375,-96.66188
75382,Dallas,32.767268,-96.777626
75555,Bivins,32.930895,-94.13542
77013,Houston,29.78146,-95.24289
75850,Leona,31.134863,-95.93312
79605,Abilene,32.432975,-99.77096
75640,Diana,32.723482,-94.69544
75438,Dodd City,33.595318,-96.07311
75703,Tyler,32.264365,-95.31347
75059,Irving,32.86372,-96.934998
77957,Edna,28.966755,-96.65939
77968,Inez,28.888476,-96.82316
77572,La Porte,29.83399,-95.434241
79928,El Paso,31.674736,-106.197528
78342,Ben Bolt,27.659473,-98.012331
78661,Prairie Lea,29.72057,-97.73519
75090,Sherman,33.632806,-96.59106
75373,Dallas,32.767268,-96.777626
76052,Haslet,32.972998,-97.35592
76118,Fort Worth,32.80533,-97.22264
77988,Telferner,28.846861,-96.88966
78055,Medina,29.833279,-99.32589
75379,Dallas,32.767268,-96.777626
76016,Arlington,32.686863,-97.19234
79103,Amarillo,35.184253,-101.81073
76110,Fort Worth,32.706331,-97.33787
77549,Friendswood,29.330501,-94.800238
78523,Brownsville,25.981006,-97.520941
78702,Austin,30.265158,-97.71879
75633,Carthage,32.145212,-94.31256
76804,Brownwood,31.77419,-99.09213
77241,Houston,29.83399,-95.434241
75495,Van Alstyne,33.426635,-96.5637
76270,Sunset,33.446897,-97.77217
78742,Austin,30.23358,-97.67831
76127,Naval Air Station/ Jrb,32.772063,-97.42165
76307,Wichita Falls,33.877746,-98.494595
78001,Artesia Wells,28.265415,-99.2821
75134,Lancaster,32.620385,-96.7812
75214,Dallas,32.825628,-96.74872
78372,Orange Grove,27.963592,-98.07031
88541,El Paso,31.694842,-106.299987
78076,Zapata,26.9052,-99.21863
79744,Iraan,30.899378,-101.98029
75081,Richardson,32.948974,-96.70916
77315,North Houston,29.83399,-95.434241
78023,Helotes,29.61403,-98.74185
75433,Cumby,33.13307,-95.81773
75493,Winfield,33.165327,-95.11279
76401,Stephenville,32.242816,-98.21058
77057,Houston,29.745129,-95.49131
78786,Austin,30.326374,-97.771258
76302,Wichita Falls,33.85379,-98.4801
76474,Sidney,31.963873,-98.78317
77047,Houston,29.616182,-95.37767
77573,League City,29.502759,-95.08906
78646,Leander,30.656817,-97.602552
79424,Lubbock,33.513337,-101.93239
78242,San Antonio,29.353735,-98.61423
78580,Raymondville,26.500175,-97.81013
75631,Beckville,32.237924,-94.46427
76953,Tennyson,31.716571,-100.35906
79355,Plains,33.16997,-102.86992
77568,La Marque,29.366684,-94.97392
75759,Cuney,32.034127,-95.41776
76645,Hillsboro,32.015496,-97.12263
77702,Beaumont,30.085112,-94.12607
78220,San Antonio,29.411583,-98.41833
88525,El Paso,31.694842,-106.299987
88532,El Paso,31.694842,-106.299987
75082,Richardson,32.993405,-96.65901
77831,Bedias,30.74577,-95.91892
76650,Irene,31.987167,-97.108113
77205,Houston,29.83399,-95.434241
75147,Mabank,32.314256,-96.11068
75210,Dallas,32.77103,-96.74732
77662,Vidor,30.142953,-94.00797
78681,Round Rock,30.518975,-97.71439
79505,Benjamin,33.565259,-99.84811
79974,El Paso,31.694842,-106.299987
78301,McAllen,26.200001,-98.231166
75603,Longview,32.396207,-94.70063
76071,Newark,33.003717,-97.48974
75567,Maud,33.328596,-94.31589
75007,Carrollton,33.00542,-96.89773
75246,Dallas,32.791878,-96.77365
75363,Dallas,32.767268,-96.777626
75931,Brookeland,31.109064,-93.99031
77227,Houston,29.83399,-95.434241
77401,Bellaire,29.70403,-95.46099
78501,Mcallen,26.213105,-98.23579
79760,Odessa,31.765163,-102.354346
88526,El Paso,31.694842,-106.299987
79187,Amarillo,35.401475,-101.895089
77049,Houston,29.832668,-95.1742
77355,Magnolia,30.158706,-95.74464
78052,Lytle,29.227628,-98.79895
75062,Irving,32.846645,-96.96733
77207,Houston,29.83399,-95.434241
78141,Nordheim,28.919157,-97.61607
78405,Corpus Christi,27.777922,-97.42695
78837,Comstock,29.933388,-101.40061
79951,El Paso,31.694842,-106.299987
78010,Center Point,29.944906,-99.0559
78643,Llano,30.721302,-98.66557
75460,Paris,33.660274,-95.55958
76020,Azle,32.905693,-97.54845
78566,Los Fresnos,26.099562,-97.43927
78828,Barksdale,29.782887,-100.08547
76564,Pendleton,31.036287,-97.492017
77889,Sienna Plantation,29.472186,-95.483489
75418,Bonham,33.583772,-96.1818
88559,El Paso,31.694842,-106.299987
78260,San Antonio,29.707273,-98.47969
78294,San Antonio,29.437532,-98.461582
78337,Rancho Alegre,27.738511,-98.098534
78162,Tuleta,28.424535,-97.732736
79547,Rule,33.196822,-99.90554
75393,Dallas,32.767268,-96.777626
77056,Houston,29.747328,-95.46931
77251,Houston,29.83399,-95.434241
78407,Corpus Christi,27.802404,-97.42599
75102,Barry,32.075079,-96.64311
75479,Savoy,33.613097,-96.34474
76934,Carlsbad,31.603027,-100.65431
77993,Weesatche,28.835825,-97.444155
78951,Oakland,29.60466,-96.524899
79094,Wayside,34.965329,-101.357838
75965,Nacogdoches,31.649582,-94.638278
76631,Bynum,31.978157,-96.9725
77035,Houston,29.654108,-95.47692
77040,Houston,29.878345,-95.53337
77389,Spring,30.10824,-95.51716
75886,Tennessee Colony,31.794191,-95.661964
78575,Olmito,26.023905,-97.54457
78606,Blanco,30.096855,-98.43411
79756,Monahans,31.568459,-102.89658
76937,Eola,31.377623,-100.10134
77023,Houston,29.725961,-95.3227
77356,Montgomery,30.412229,-95.6529
79907,El Paso,31.70831,-106.32749
77087,Houston,29.686579,-95.30386
76002,Arlington,32.632349,-97.0963
79901,El Paso,31.759558,-106.48011
78596,Weslaco,26.162609,-97.98512
88566,El Paso,31.694842,-106.299987
76666,Mertens,32.046241,-96.90003
77598,Webster,29.539581,-95.13467
79603,Abilene,32.466724,-99.76927
75052,Grand Prairie,32.675604,-97.02346
75688,Scottsville,32.55397,-94.239351
76852,Lohn,31.404745,-99.49265
75840,Fairfield,31.763713,-96.10808
78003,Bandera,29.718152,-99.06605
88516,El Paso,31.694842,-106.299987
76250,Lindsay,33.62109,-97.20652
78472,Corpus Christi,27.740225,-97.579207
78118,Karnes City,28.894382,-97.90102
79984,El Paso,31.694842,-106.299987
79376,Tokio,33.203713,-102.62018
79912,El Paso,31.848055,-106.54487
76121,Fort Worth,32.771419,-97.291484
77534,Danbury,29.226396,-95.33797
77593,League City,29.506921,-95.111987
77701,Beaumont,30.074112,-94.10358
77857,Gause,30.796177,-96.70685
77879,Somerville,30.368922,-96.52359
79501,Anson,32.754555,-99.89507
78780,Austin,30.326374,-97.771258
78253,San Antonio,29.461353,-98.75976
75216,Dallas,32.710082,-96.7972
76888,Voss,31.589203,-99.62601
77477,Stafford,29.626187,-95.57145
78332,Alice,27.737965,-98.09302
78852,Eagle Pass,28.716242,-100.48058
79119,Amarillo,35.097488,-101.98105
79015,Canyon,34.971029,-101.9212
79780,Saragosa,31.026706,-103.65509
76483,Throckmorton,33.155666,-99.2174
77234,Houston,29.83399,-95.434241
77882,Wheelock,30.896204,-96.40959
78073,Von Ormy,29.227135,-98.60919
78666,San Marcos,29.876944,-97.94668
79845,Presidio,29.597409,-104.27058
79848,Sanderson,30.144953,-102.39894
75979,Woodville,30.768601,-94.40671
77304,Conroe,30.33146,-95.50703
78602,Bastrop,30.120443,-97.30991
79516,Dunn,32.747707,-100.9153
76082,Springtown,32.964932,-97.69803
77582,Raywood,30.023932,-94.66678
78223,San Antonio,29.352352,-98.43215
78957,Smithville,30.010487,-97.16036
75662,Kilgore,32.387151,-94.87439
76518,Buckholts,30.851275,-97.13837
76119,Fort Worth,32.691033,-97.26479
78125,Mineral,28.535247,-97.93937
78717,Austin,30.494623,-97.75687
77277,Houston,29.83399,-95.434241
75326,Dallas,32.767268,-96.777626
75672,Marshall,32.513986,-94.30704
75948,Hemphill,31.332569,-93.75338
76528,Gatesville,31.43211,-97.72602
75861,Tennessee Colony,31.829314,-95.86383
78111,Ecleto,28.944864,-97.882815
77299,Houston,29.83399,-95.434241
77586,Seabrook,29.576638,-95.03486
77383,Spring,29.83399,-95.434241
75008,Carrollton,33.20743,-97.116282
77084,Houston,29.839155,-95.66391
77245,Houston,29.83399,-95.434241
78233,San Antonio,29.552128,-98.36775
78539,Edinburg,26.344128,-98.18011
78771,Austin,30.326374,-97.771258
79721,Big Spring,32.27328,-101.373968
75439,Ector,33.573304,-96.27386
75949,Huntington,31.226939,-94.5321
77269,Houston,29.83399,-95.434241
77272,Houston,29.83399,-95.434241
77588,Pearland,29.512687,-95.254188
78028,Kerrville,30.042529,-99.15152
78474,Corpus Christi,27.777,-97.463213
78368,Mathis,28.101323,-97.82968
78781,Austin,30.326374,-97.771258
75238,Dallas,32.873926,-96.70922
76273,Whitesboro,33.705904,-96.91786
77070,Houston,29.978801,-95.57655
75037,Irving,32.767268,-96.777626
75115,Desoto,32.599286,-96.85882
78573,Mission,26.409709,-98.224206
79941,El Paso,31.694842,-106.299987
75491,Whitewright,33.494285,-96.39598
77029,Houston,29.760794,-95.26043
76445,Desdemona,32.298841,-98.55194
77659,Sour Lake,30.150405,-94.41515
75027,Flower Mound,33.20743,-97.116282
78046,Laredo,27.435814,-99.45996
78225,San Antonio,29.387734,-98.52492
75473,Powderly,33.801663,-95.50309
76502,Temple,31.086483,-97.40076
78834,Carrizo Springs,28.524292,-99.83827
79702,Midland,31.963698,-102.080064
75472,Point,32.906194,-95.87967
75693,White Oak,32.533965,-94.86062
78838,Concan,29.541648,-99.71817
78582,Rio Grande City,26.445982,-98.69332
77284,Houston,29.83399,-95.434241
77439,San Leon,29.487774,-94.951647
78553,Harlingen,26.125242,-97.475663
78617,Del Valle,30.166225,-97.62496
76430,Albany,32.742591,-99.27519
77984,Shiner,29.442934,-97.18691
79057,Mclean,35.263424,-100.61635
75833,Centerville,31.27575,-95.90131
76703,Waco,31.553646,-97.203166
77709,Voth,30.176361,-94.187683
78151,Runge,28.878902,-97.71427
78645,Leander,30.453776,-97.97507
75164,Josephine,33.065217,-96.31152
75242,Dallas,32.767268,-96.777626
75441,Enloe,33.432974,-95.65815
79938,El Paso,31.852355,-106.09325
88518,El Paso,31.694842,-106.299987
88586,El Paso,31.694842,-106.299987
75250,Dallas,32.767268,-96.777626
76689,Valley Mills,31.662435,-97.50214
78107,Berclair,28.53232,-97.5888
79403,Lubbock,33.614934,-101.8067
88588,El Paso,31.694842,-106.299987
77213,Houston,29.83399,-95.434241
78737,Austin,30.19025,-97.95854
88582,El Paso,31.694842,-106.299987
75446,Honey Grove,33.589851,-95.90242
75469,Pecan Gap,33.434737,-95.83057
76467,Paluxy,32.341365,-97.932083
78460,Corpus Christi,27.889868,-97.879743
78567,Los Indios,26.041669,-97.693736
78583,Rio Hondo,26.259032,-97.52948
78728,Austin,30.451803,-97.67989
79044,Hartley,35.890235,-102.3595
76019,Arlington,32.771419,-97.291484
75247,Dallas,32.817978,-96.87928
76458,Jacksboro,33.200265,-98.15778
77354,Magnolia,30.194267,-95.63918
79167,Amarillo,35.401475,-101.895089
88544,El Paso,31.694842,-106.299987
79905,El Paso,31.768758,-106.43047
75207,Dallas,32.78643,-96.81992
76352,Bluegrove,33.811665,-98.184762
78471,Corpus Christi,27.777,-97.463213
78344,Bruni,27.43254,-98.81271
78204,San Antonio,29.403583,-98.5063
79224,Chalk,34.074854,-100.258156
78624,Fredericksburg,30.279267,-98.88389
88517,El Paso,31.694842,-106.299987
75263,Dallas,32.767268,-96.777626
75285,Dallas,32.767268,-96.777626
76576,Salado,30.946345,-97.535883
78202,San Antonio,29.428132,-98.46279
75167,Waxahachie,32.380958,-96.91801
75790,Van,32.533765,-95.63493
88558,El Paso,31.694842,-106.299987
79159,Amarillo,35.216029,-102.071415
79720,Big Spring,32.21649,-101.4532
75686,Pittsburg,32.97708,-94.96809
76579,Troy,31.212196,-97.26563
78872,La Pryor,28.950547,-99.85032
79105,Amarillo,35.401475,-101.895089
75155,Rice,32.226257,-96.48147
77531,Clute,29.038068,-95.40114
78401,Corpus Christi,27.795805,-97.40019
78412,Corpus Christi,27.709309,-97.35225
78672,Tow,30.864936,-98.45361
75093,Plano,33.03505,-96.80492
75120,Ennis,32.334709,-96.633546
77904,Victoria,28.873664,-97.00715
77985,Speaks,29.347975,-96.900331
75150,Mesquite,32.818392,-96.63355
88573,El Paso,31.694842,-106.299987
79019,Claude,35.062127,-101.41617
79453,Lubbock,33.610018,-101.821292
76060,Kennedale,32.645257,-97.21458
76570,Rosebud,31.071723,-96.96229
76640,Elm Mott,31.686152,-97.08602
75946,Garrison,31.834379,-94.52629
78604,Belmont,29.447211,-97.494649
79079,Shamrock,35.227015,-100.27501
76670,Milford,32.111683,-96.97377
79098,Wildorado,35.151101,-102.18977
79164,Amarillo,35.401475,-101.895089
76197,Fort Worth,32.771419,-97.291484
75099,Coppell,32.77103,-96.79963
77468,Pledger,29.177817,-95.89195
78520,Brownsville,25.928274,-97.51618
76272,Valley View,33.482548,-97.12259
78732,Austin,30.382724,-97.89459
75783,Quitman,32.810076,-95.4355
76120,Fort Worth,32.762631,-97.17527
76433,Bluff Dale,32.318616,-98.03345
77224,Houston,29.83399,-95.434241
79084,Stratford,36.28116,-102.02187
78839,Crystal City,28.68906,-99.81278
76209,Denton,33.23552,-97.112743
77257,Houston,29.83399,-95.434241
76870,Priddy,31.651485,-98.50831
75457,Mount Vernon,33.151104,-95.21965
78943,Glidden,29.699797,-96.59314
77346,Humble,30.001902,-95.16962
78115,Geronimo,29.54508,-98.040833
78636,Johnson City,30.286655,-98.39837
78632,Harwood,29.698718,-97.45739
78870,Knippa,29.297821,-99.62754
75470,Petty,33.60355,-95.81202
75656,Hughes Springs,32.998759,-94.61948
76259,Ponder,33.187644,-97.29676
77964,Hallettsville,29.369619,-96.86644
78144,Panna Maria,28.954252,-97.89674
78330,Agua Dulce,27.782267,-97.90134
78470,Corpus Christi,27.777,-97.463213
77083,Houston,29.691714,-95.64978
77097,Houston,29.83399,-95.434241
75941,Diboll,31.195633,-94.77725
78351,Driscoll,27.672549,-97.75105
79788,Wickett,31.569032,-103.00689
77869,Navasota,30.65212,-96.341012
78061,Pearsall,28.888468,-99.09005
75903,Lufkin,31.276647,-94.56759
78071,Three Rivers,28.492487,-98.1764
75414,Bells,33.615634,-96.41899
76607,Milford,32.127507,-96.947689
75223,Dallas,32.792879,-96.74918
76470,Ranger,32.497298,-98.67402
77630,Orange,30.089757,-93.77408
78218,San Antonio,29.49428,-98.40431
78232,San Antonio,29.584698,-98.46987
78357,Freer,27.939823,-98.57624
79707,Midland,32.021056,-102.16008
77417,Beasley,29.483573,-95.93931
77862,Kurten,30.65212,-96.341012
79359,Seagraves,32.922387,-102.56265
79540,Old Glory,33.151135,-100.04142
75287,Dallas,32.998786,-96.84436
76469,Putnam,32.37338,-99.19762
77033,Houston,29.66913,-95.33834
78389,Skidmore,28.237359,-97.69331
79510,Clyde,32.337156,-99.51701
76468,Proctor,31.989197,-98.42529
76402,Stephenville,32.215275,-98.207997
78741,Austin,30.231252,-97.716
79081,Spearman,36.185112,-101.18783
79706,Midland,31.880341,-101.96324
75336,Dallas,32.767268,-96.777626
75784,Reklaw,31.883205,-94.9689
76087,Weatherford,32.703008,-97.74814
76377,Petrolia,34.011464,-98.22961
76437,Cisco,32.39492,-98.99444
78621,Elgin,30.338279,-97.36611
79322,Crosbyton,33.653787,-101.22866
79493,Lubbock,33.610018,-101.821292
75141,Hutchins,32.644647,-96.71036
77856,Franklin,31.049092,-96.44131
75097,Weston,33.351238,-96.664632
78767,Austin,30.222007,-97.896285
79045,Hereford,34.854898,-102.41824
79120,Amarillo,35.196352,-101.803412
78842,Del Rio,29.411955,-100.934216
77297,Houston,29.83399,-95.434241
75573,Redwater,33.353249,-94.25971
75778,Murchison,32.33383,-95.7102
78585,Salineno,26.510436,-98.746365
79903,El Paso,31.786221,-106.44583
79927,El Paso,31.684338,-106.20788
78615,Coupland,30.460373,-97.3935
79358,Ropesville,33.425342,-102.16505
76161,Fort Worth,32.771419,-97.291484
79338,Levelland,33.593213,-102.362709
88581,El Paso,31.694842,-106.299987
77028,Houston,29.827315,-95.28631
78572,Mission,26.234417,-98.34205
79171,Amarillo,35.401475,-101.895089
79766,Odessa,31.749504,-102.32177
79776,Penwell,31.730204,-102.62831
79902,El Paso,31.775458,-106.4945
77036,Houston,29.70053,-95.53514
78241,San Antonio,29.437532,-98.461582
78714,Austin,30.335787,-97.443751
75077,Lewisville,33.075138,-97.0529
75323,Dallas,32.767268,-96.777626
75602,Longview,32.474499,-94.712
76028,Burleson,32.535841,-97.30681
77225,Houston,29.83399,-95.434241
78215,San Antonio,29.438032,-98.48114
75408,Anna,33.349316,-96.548597
75659,Jonesville,32.507491,-94.110636
76249,Krum,33.270036,-97.24859
77336,Huffman,30.045495,-95.10714
78417,Corpus Christi,27.729855,-97.44503
79870,Alpine,30.354251,-103.658391
75785,Rusk,31.79364,-95.16761
75936,Chester,30.942336,-94.58376
76126,Fort Worth,32.649476,-97.49124
76569,Rogers,30.932552,-97.22374
77519,Batson,30.249734,-94.60291
75232,Dallas,32.664034,-96.83886
76574,Taylor,30.574821,-97.40948
77833,Brenham,30.183651,-96.40258
78722,Austin,30.289307,-97.71659
77058,Houston,29.55283,-95.10265
78557,Hidalgo,26.105725,-98.24639
75056,The Colony,33.081421,-96.88957
77384,Conroe,30.233865,-95.49679
75376,Dallas,32.767268,-96.777626
77387,Spring,30.378446,-95.557004
79180,Amarillo,35.401475,-101.895089
79701,Midland,31.995623,-102.08108
76566,Purmela,31.506687,-97.98997
77095,Houston,29.896656,-95.64842
78117,Hobson,28.956196,-97.95012
79960,El Paso,31.694842,-106.299987
75068,Little Elm,33.173008,-96.95485
77399,Livingston,30.817866,-94.869052
79911,El Paso,31.694842,-106.299987
75067,Lewisville,33.020118,-97.00771
75501,Texarkana,33.414708,-94.08984
78683,Round Rock,30.656817,-97.602552
79369,Spade,33.91843,-102.15822
79698,Abilene,32.475074,-99.73484
76077,Rainbow,32.28122,-97.70927
76192,Fort Worth,32.771419,-97.291484
77507,Pasadena,29.624686,-95.06111
76136,Fort Worth,32.771419,-97.291484
76628,Brandon,32.045029,-96.96601
78476,Corpus Christi,27.777,-97.463213
78516,Alamo,26.175021,-98.11969
76449,Graford,32.908714,-98.35727
76823,Bangs,31.714347,-99.14462
76457,Hico,31.944207,-98.02763
76597,Gatesville,31.390196,-97.799309
79360,Seminole,32.718232,-102.73458
75040,Garland,32.920574,-96.62639
75151,Corsicana,32.062395,-96.473459
75458,Merit,33.242656,-96.291572
75681,Mount Enterprise,31.934633,-94.68886
77965,Hallettsville,29.444297,-96.952091
79250,Petersburg,33.870404,-101.60467
77219,Houston,29.83399,-95.434241
76078,Rhome,33.072675,-97.473
77554,Galveston,29.221289,-94.94455
75666,Laird Hill,32.301898,-94.928795
76011,Arlington,32.753672,-97.08706
77567,League City,29.545836,-95.041532
77455,Louise,29.095463,-96.40324
77954,Cuero,29.09649,-97.28798
76951,Sterling City,31.818347,-101.0455
88513,El Paso,31.694842,-106.299987
76859,Menard,30.873091,-99.8296
77345,Humble,30.062436,-95.16945
78335,Aransas Pass,27.912454,-97.188437
78574,Sebastian,26.244013,-98.31176
79408,Lubbock,33.565926,-101.92669
75283,Dallas,32.767268,-96.777626
77496,Sugar Land,29.525461,-95.756462
79102,Amarillo,35.197852,-101.84543
79121,Amarillo,35.173704,-101.92914
78380,Robstown,27.782255,-97.68609
78631,Harper,30.334152,-99.2956
79537,Nolan,32.269772,-100.23572
78040,Laredo,27.514845,-99.49991
79544,Rochester,33.308203,-99.86203
75711,Tyler,32.539879,-95.419983
88543,El Paso,31.694842,-106.299987
75002,Allen,33.092846,-96.62447
75240,Dallas,32.938774,-96.78543
76155,Fort Worth,32.830932,-97.04778
88540,El Paso,31.694842,-106.299987
76665,Meridian,31.922473,-97.69159
77002,Houston,29.755578,-95.36531
77807,Bryan,30.68416,-96.46101
77838,Chriesman,30.513118,-96.618047
78221,San Antonio,29.326586,-98.50217
78552,Harlingen,26.195591,-97.75321
75142,Kaufman,32.574299,-96.30377
76208,Denton,33.198442,-97.06078
75792,Winona,32.476905,-95.13088
75563,Linden,33.005009,-94.37603
75127,Fruitvale,32.68309,-95.79436
75159,Seagoville,32.628858,-96.53811
76634,Clifton,31.798454,-97.52516
77978,Point Comfort,28.672399,-96.55725
78057,Moore,29.047934,-99.0416
78952,Plum,29.896219,-96.943868
75070,McKinney,33.212203,-96.67522
78213,San Antonio,29.510562,-98.52203
78230,San Antonio,29.539562,-98.55253
78384,San Diego,27.683506,-98.38142
79733,Forsan,32.110298,-101.3655
75015,Irving,32.767268,-96.777626
76667,Mexia,31.669823,-96.48721
77580,Mont Belvieu,29.856137,-94.842939
76073,Paradise,33.122273,-97.71691
76271,Tioga,33.469076,-96.91632
77085,Houston,29.621746,-95.48695
77215,Houston,29.83399,-95.434241
77443,Glen Flora,29.346878,-96.19287
75570,New Boston,33.465282,-94.41954
76904,San Angelo,31.344515,-100.47217
77280,Houston,29.83399,-95.434241
77327,Cleveland,30.35469,-95.04514
77995,Yoakum,29.254632,-97.13046
78676,Wimberley,30.022492,-98.13294
75381,Dallas,32.767268,-96.777626
78343,Bishop,27.60549,-97.78572
78657,Marble Falls,30.538867,-98.36511
75482,Sulphur Springs,33.143752,-95.60102
75702,Tyler,32.360498,-95.3071
76246,Greenwood,33.41798,-97.46457
76299,Roanoke,33.20743,-97.116282
76903,San Angelo,31.468911,-100.4387
79056,Lipscomb,36.232046,-100.27971
77064,Houston,29.923638,-95.55919
78163,Bulverde,29.758619,-98.44199
78883,Tarpley,29.671077,-99.34384
75962,Nacogdoches,31.699494,-94.607432
76707,Waco,31.552266,-97.15957
77044,Houston,29.88277,-95.16782
77053,Houston,29.596666,-95.45981
77302,Conroe,30.238563,-95.38927
75480,Scroggins,33.04314,-95.19302
75932,Burkeville,31.067439,-93.61936
75020,Denison,33.754053,-96.57867
75388,Dallas,32.767268,-96.777626
75851,Lovelady,31.104197,-95.46434
76543,Killeen,31.113828,-97.69246
76712,Woodway,31.514067,-97.23546
77259,Houston,29.83399,-95.434241
77372,Splendora,30.220237,-95.16723
78512,Mission,26.232613,-98.348534
78478,Corpus Christi,27.777,-97.463213
79232,Dumont,33.773871,-100.61443
76524,Eddy,31.279614,-97.22336
77396,Humble,29.951621,-95.26785
79519,Goldsboro,32.043108,-99.70865
76150,Fort Worth,32.771419,-97.291484
77452,Kenney,29.849283,-96.313271
75496,Wolfe City,33.350543,-96.05705
75884,Tennessee Colony,31.794191,-95.661964
76210,Corinth,33.143186,-97.088337
76230,Bowie,33.54007,-97.88575
75212,Dallas,32.78238,-96.86945
76883,Telegraph,29.956952,-100.227509
78123,McQueeney,29.598103,-98.04346
79312,Amherst,34.017448,-102.3858
79993,El Paso,31.694842,-106.299987
77220,Houston,29.83399,-95.434241
79070,Perryton,36.336972,-100.82966
73344,Austin,30.326374,-97.771258
75835,Crockett,31.315837,-95.47393
75030,Rowlett,32.91747,-96.534737
76711,Waco,31.520296,-97.15099
78280,San Antonio,29.437532,-98.461582
78760,Austin,30.326374,-97.771258
79782,Stanton,32.09023,-101.81691
76022,Bedford,32.831228,-97.14593
78613,Cedar Park,30.501272,-97.83087
78782,Austin,30.326374,-97.771258
76115,Fort Worth,32.680333,-97.33579
75422,Campbell,33.146779,-95.93998
76692,Whitney,31.975949,-97.35499
77054,Houston,29.683865,-95.39772
78718,Austin,30.326374,-97.771258
79521,Haskell,33.147497,-99.70246
75041,Garland,32.881525,-96.64601
75109,Angus,32.03049,-96.383005
75825,Alto,31.64775,-95.082239
78249,San Antonio,29.569934,-98.61282
78618,Doss,30.486818,-99.17526
78243,San Antonio,29.437532,-98.461582
79757,Wickett,31.566763,-103.014646
88574,El Paso,31.694842,-106.299987
76702,Waco,31.547516,-97.14433
77626,Mauriceville,30.203996,-93.886646
78361,Hebbronville,27.17199,-98.73083
78579,Progreso,26.087777,-97.9719
75124,Eustace,32.310343,-96.00312
76633,China Spring,31.669085,-97.3201
76196,Fort Worth,32.771419,-97.291484
77465,Palacios,28.735638,-96.22273
78255,San Antonio,29.665822,-98.66812
79165,Amarillo,35.401475,-101.895089
76023,Boyd,33.068301,-97.59099
75169,Wills Point,32.725386,-96.00238
75245,Dallas,32.922499,-96.535191
75880,Tennessee Colony,31.794191,-95.661964
76837,Eden,31.201871,-99.90601
77533,Daisetta,30.112587,-94.64704
78226,San Antonio,29.392167,-98.55468
75029,Lewisville,33.20743,-97.116282
78753,Austin,30.374654,-97.67621
78152,Saint Hedwig,29.432262,-98.20151
78286,San Antonio,29.437532,-98.461582
78664,Round Rock,30.514401,-97.65549
78946,Ledbetter,30.186858,-96.78185
77204,Houston,29.83399,-95.434241
79344,Maple,33.855245,-102.95319
79711,Midland,31.869259,-102.031726
77853,Dime Box,30.3555,-96.85437
79059,Miami,35.724847,-100.6961
79916,El Paso,31.744353,-106.287923
77625,Kountze,30.372553,-94.33671
76267,Slidell,33.378039,-97.39219
77990,Tivoli,28.459757,-96.88598
78005,Bigfoot,28.976757,-98.84426
75707,Tyler,32.292394,-95.20749
77388,Spring,30.055195,-95.46826
77473,San Felipe,29.799608,-96.10123
77471,Rosenberg,29.549455,-95.81901
78136,McQueeney,29.619401,-98.060419
78477,Corpus Christi,27.777,-97.463213
79029,Dumas,35.893121,-101.95908
76309,Wichita Falls,33.892447,-98.53215
77493,Katy,29.810279,-95.82011
76005,Arlington,32.771419,-97.291484
76577,Thorndale,30.611416,-97.18458
77552,Galveston,29.22051,-94.944391
77223,Houston,29.83399,-95.434241
77640,Port Arthur,29.879796,-93.95575
78292,San Antonio,29.437532,-98.461582
75204,Dallas,32.800333,-96.78952
75770,Larue,32.132651,-95.64632
77360,Onalaska,30.818886,-95.11108
78873,Leakey,29.756509,-99.76665
79031,Earth,34.235871,-102.40636
76033,Cleburne,32.350907,-97.410254
76374,Olney,33.364868,-98.75201
77365,Porter,30.102209,-95.25748
78465,Corpus Christi,27.777,-97.463213
76148,Fort Worth,32.869384,-97.25123
78551,Harlingen,26.244651,-97.720569
78629,Gonzales,29.510439,-97.45352
77379,Spring,30.024749,-95.53215
77859,Hearne,30.876658,-96.60205
76389,Windthorst,33.554607,-98.42076
76448,Eastland,32.398681,-98.7959
77096,Houston,29.674336,-95.48123
78673,Walburg,30.741495,-97.589147
79835,Canutillo,31.932926,-106.59577
76525,Evant,31.485242,-98.19084
76657,McGregor,31.416926,-97.40095
77024,Houston,29.773994,-95.51771
77961,Francitas,28.861398,-96.34404
75143,Kemp,32.348007,-96.21035
75453,Lone Oak,32.952736,-95.94594
75865,Woodlake,31.105786,-95.138794
77703,Beaumont,30.112312,-94.11736
78853,Eagle Pass,28.679006,-100.478373
79950,El Paso,31.694842,-106.299987
79039,Groom,35.235628,-101.10183
76596,Gatesville,31.390196,-97.799309
77561,Hardin,30.154264,-94.72677
77803,Bryan,30.678097,-96.37639
75401,Greenville,33.15023,-96.11289
77019,Houston,29.752528,-95.39923
75092,Sherman,33.649938,-96.65387
76802,Early,31.747887,-98.93928
79092,Vega,35.209649,-102.42611
78122,Leesville,29.425729,-97.7365
79779,Royalty,31.459448,-103.188993
75424,Blue Ridge,33.321604,-96.39502
76940,Mereta,31.45195,-100.12886
75670,Marshall,32.547424,-94.37958
76622,Aquilla,31.824495,-97.23306
78259,San Antonio,29.627332,-98.42781
76130,Fort Worth,32.771419,-97.291484
77265,Houston,29.83399,-95.434241
79743,Imperial,31.253704,-102.696
76598,Gatesville,31.390196,-97.799309
77048,Houston,29.633081,-95.33761
78208,San Antonio,29.439832,-98.45879
75085,Richardson,32.767268,-96.777626
75462,Paris,33.638587,-95.48589
76301,Wichita Falls,33.916497,-98.47132
79011,Briscoe,35.662917,-100.21999
76147,Fort Worth,32.771419,-97.291484
77629,Nome,30.031927,-94.42374
75750,Arp,32.254414,-95.06517
76552,Leon Junction,31.351234,-97.548468
76629,Bremond,31.160528,-96.6778
79990,El Paso,31.694842,-106.299987
78886,Yancey,29.143045,-99.19045
78112,Elmendorf,29.221682,-98.36902
76436,Carlton,31.917085,-98.17418
79533,Lueders,32.80699,-99.60862
78733,Austin,30.329704,-97.8751
78075,Whitsett,28.633209,-98.27924
79931,El Paso,31.694842,-106.299987
79189,Amarillo,35.401475,-101.895089
75226,Dallas,32.783978,-96.77662
88577,El Paso,31.694842,-106.299987
76865,Norton,31.849628,-100.15332
75639,De Berry,32.285877,-94.1811
75006,Carrollton,32.960374,-96.89163
79842,Marathon,30.12169,-103.22091
77221,Houston,29.83399,-95.434241
75559,De Kalb,33.515778,-94.61355
75032,Rockwall,32.867103,-96.44129
78841,Del Rio,29.346518,-100.928864
75413,Bailey,33.43515,-96.16671
76153,Fort Worth,32.667134,-97.348895
77657,Lumberton,30.240473,-94.20172
75001,Addison,32.96129,-96.83751
75436,Detroit,33.670159,-95.2609
75568,Naples,33.206258,-94.63009
76534,Holland,30.883556,-97.396
77301,Conroe,30.313308,-95.45085
78723,Austin,30.306507,-97.68651
79982,El Paso,31.694842,-106.299987
77564,Hull,30.159698,-94.65504
77333,Dobbin,30.353346,-95.77833
77423,Brookshire,29.80038,-95.98452
78069,Somerset,29.200169,-98.67235
75608,Longview,32.570051,-94.848063
88585,El Paso,31.694842,-106.299987
75708,Tyler,32.40331,-95.22276
76233,Collinsville,33.542765,-96.89419
77022,Houston,29.825176,-95.37798
78589,San Juan,26.190444,-98.15301
75086,Plano,33.002395,-96.615837
79832,Alpine,30.363139,-103.653904
75942,Doucette,30.819095,-94.40497
77806,Bryan,30.65212,-96.341012
75065,Lake Dallas,33.12635,-97.02525
76035,Cresson,32.546387,-97.64633
77031,Houston,29.654132,-95.54311
77094,Houston,29.770722,-95.6988
77358,New Waverly,30.545212,-95.46752
79457,Lubbock,33.610018,-101.821292
75499,Savoy,33.602194,-96.365174
76676,Penelope,31.861594,-96.93466
77844,College Station,30.65212,-96.341012
76252,Muenster,33.661889,-97.38029
76427,Bryson,33.165414,-98.38244
76943,Ozona,30.620199,-101.24517
79762,Odessa,31.890374,-102.35398
78611,Burnet,30.767327,-98.30109
79013,Cactus,36.044769,-102.01155
75959,Milam,31.511711,-93.86086
76305,Wichita Falls,33.996515,-98.51781
77055,Houston,29.798877,-95.49629
79247,Odell,34.345924,-99.41669
78408,Corpus Christi,27.796171,-97.43796
78548,Grulla,26.270824,-98.64891
75078,Prosper,33.240766,-96.79944
79754,Mentone,31.72285,-103.57449
79988,El Paso,31.694842,-106.299987
76871,Richland Springs,31.292292,-98.96012
76537,Jarrell,30.808903,-97.59923
78651,McNeil,30.326374,-97.771258
88531,El Paso,31.694842,-106.299987
75083,Richardson,32.767268,-96.777626
75944,Etoile,31.368872,-94.40817
76180,North Richland Hills,32.855666,-97.21818
76884,Valera,31.753561,-99.54774
77222,Houston,29.83399,-95.434241
75926,Apple Springs,31.243006,-94.96448
76255,Nocona,33.824724,-97.69688
75026,Plano,33.19359,-96.569879
75692,Waskom,32.472069,-94.09556
77871,Normangee,31.058563,-96.15852
78598,Port Mansfield,26.558995,-97.42738
78708,Austin,30.326374,-97.771258
79170,Amarillo,35.401475,-101.895089
76939,Knickerbocker,31.250101,-100.592015
77553,Galveston,29.328547,-94.79422
78206,San Antonio,29.437532,-98.461582
78938,Ellinger,29.838528,-96.70389
79064,Olton,34.18788,-102.13325
79324,Enochs,33.895013,-102.78117
75118,Elmo,32.599614,-96.302743
77515,Angleton,29.16866,-95.44541
77521,Baytown,29.784579,-94.97588
77639,Orangefield,30.063101,-93.859903
78590,San Perlita,26.455519,-97.585805
79063,Nazareth,34.543766,-102.12349
79077,Samnorwood,34.840485,-100.204928
75091,Sherman,33.678665,-96.662289
76935,Christoval,31.088429,-100.41072
77098,Houston,29.735529,-95.41405
78016,Devine,29.158899,-98.933
78350,Dinero,28.421814,-98.071902
79968,El Paso,31.770458,-106.504843
79549,Snyder,32.760229,-100.95344
77235,Houston,29.83399,-95.434241
77281,Houston,29.83399,-95.434241
78254,San Antonio,29.523294,-98.74504
76163,Fort Worth,32.771419,-97.291484
76207,Denton,33.236827,-97.16941
76061,Lillian,32.502674,-97.16347
78789,Austin,30.326374,-97.771258
76102,Fort Worth,32.75388,-97.32987
88545,El Paso,31.694842,-106.299987
79058,Masterson,35.837775,-101.892846
75035,Frisco,33.130086,-96.78177
77071,Houston,29.647637,-95.51718
76682,Riesel,31.475763,-96.9179
75353,Dallas,32.767268,-96.777626
76123,Fort Worth,32.623807,-97.37548
76906,San Angelo,31.372754,-100.495114
77999,Texas City,29.495537,-94.961797
79643,Ozona,30.711061,-101.215979
75407,Princeton,33.14572,-96.49664
75638,Daingerfield,33.02583,-94.72481
76263,Rosston,33.487842,-97.421155
75264,Dallas,32.767268,-96.777626
79042,Happy,34.759887,-101.83116
76627,Blum,32.122106,-97.41864
75148,Malakoff,32.183649,-96.01862
75637,Clayton,32.102729,-94.493543
75104,Cedar Hill,32.588536,-96.94949
77006,Houston,29.741878,-95.38944
78941,Flatonia,29.719856,-97.1249
79233,Estelline,34.545031,-100.43729
79945,El Paso,31.694842,-106.299987
79001,Adrian,35.2195,-102.71795
79532,Loraine,32.409433,-100.71285
79785,Toyah,31.306912,-103.79377
75205,Dallas,32.836094,-96.79524
76018,Arlington,32.65392,-97.08724
76798,Waco,31.547466,-97.11997
76958,Water Valley,31.663529,-100.71789
75435,Deport,33.507909,-95.31828
75974,Tenaha,31.943273,-94.24291
76459,Jermyn,33.277727,-98.39461
76238,Era,33.491311,-97.39136
77539,Dickinson,29.468772,-95.02689
78134,New Braunfels,29.687579,-98.120104
75301,Dallas,32.767268,-96.777626
75966,Newton,30.831678,-93.74869
77587,South Houston,29.66223,-95.23106
77972,Long Mott,28.525453,-96.694818
88572,El Paso,31.694842,-106.299987
75154,Red Oak,32.526123,-96.82325
75572,Queen City,33.210952,-94.13364
79571,Haskell,33.158381,-99.718725
78239,San Antonio,29.51613,-98.36161
79175,Amarillo,35.401475,-101.895089
77391,Spring,29.83399,-95.434241
77615,Evadale,30.316847,-94.07395
75230,Dallas,32.901176,-96.79054
75694,Woodlawn,32.653731,-94.342725
79244,Matador,34.070936,-100.82488
79786,Toyahvale,31.383297,-103.556598
76472,Santo,32.617128,-98.17476
76945,Robert Lee,31.890079,-100.5669
78102,Beeville,28.426202,-97.74806
79552,Stamford,32.944761,-99.800304
75080,Richardson,32.969523,-96.74093
75254,Dallas,32.946069,-96.794496
76511,Bartlett,30.798697,-97.42363
76704,Waco,31.571266,-97.12201
77867,Mumford,30.748833,-96.57391
79014,Canadian,35.866528,-100.31313
79854,Valentine,30.647349,-104.52192
75028,Flower Mound,33.033214,-97.05965
75683,Ore City,32.809766,-94.70513
77266,Houston,29.83399,-95.434241
77480,Sweeny,29.055954,-95.71344
77950,Austwell,28.390776,-96.84723
78050,Leming,29.072689,-98.48916
78773,Austin,30.326374,-97.771258
79738,Gail,32.723865,-101.45811
76371,Munday,33.463284,-99.63839
75025,Plano,33.086868,-96.74504
75364,Dallas,32.767268,-96.777626
75902,Lufkin,31.362315,-94.761103
76058,Joshua,32.461964,-97.40774
78721,Austin,30.272926,-97.68665
79920,El Paso,31.821439,-106.461405
77242,Houston,29.83399,-95.434241
75221,Dallas,32.814728,-96.787725
88521,El Paso,31.694842,-106.299987
77073,Houston,30.008745,-95.41273
78473,Corpus Christi,27.777,-97.463213
78029,Kerrville,30.033226,-99.140974
78236,San Antonio,29.389767,-98.61251
77305,Conroe,30.290638,-95.383202
77514,Anahuac,29.689054,-94.66375
75853,Montalba,31.930882,-95.82974
76827,Brookesmith,31.542459,-99.13604
77009,Houston,29.79326,-95.36735
79238,Kirkland,34.529678,-100.207642
77474,Sealy,29.776375,-96.16474
77075,Houston,29.620881,-95.26018
77591,Texas City,29.389583,-94.99167
77348,Huntsville,30.78128,-95.59527
77429,Cypress,29.982746,-95.66597
77518,Bacliff,29.504389,-94.98779
78787,Austin,30.326374,-97.771258
79853,Tornillo,31.447738,-106.09049
75237,Dallas,32.666984,-96.87633
76370,Megargel,33.445341,-98.92106
76824,Bend,31.086845,-98.51817
75045,Garland,32.913695,-96.627131
76464,Moran,32.57665,-99.18511
78299,San Antonio,29.437532,-98.461582
76262,Roanoke,33.000177,-97.21871
77236,Houston,29.83399,-95.434241
79363,Shallowater,33.701024,-102.01948
78802,Uvalde,29.223697,-99.779351
78419,Corpus Christi,27.723611,-97.380884
79248,Paducah,34.006473,-100.21246
76571,Salado,30.955509,-97.56503
78203,San Antonio,29.414983,-98.46239
78216,San Antonio,29.528515,-98.49219
88556,El Paso,31.694842,-106.299987
76055,Itasca,32.157903,-97.15014
76109,Fort Worth,32.699565,-97.37808
77279,Houston,29.83399,-95.434241
79366,Ransom Canyon,33.531908,-101.69479
76064,Maypearl,32.307456,-97.02761
76206,Denton,33.169379,-97.150558
79234,Flomot,34.241416,-100.93789
78584,Roma,26.493058,-99.00718
78716,Austin,30.316223,-97.85877
78610,Buda,30.07703,-97.8178
78768,Austin,30.326374,-97.771258
75038,Irving,32.872386,-96.98524
75123,Desoto,32.767268,-96.777626
75168,Waxahachie,32.374937,-96.716638
75847,Kennard,31.355453,-95.15421
75782,Poynor,32.075703,-95.59919
77843,College Station,30.65212,-96.341012
77077,Houston,29.750897,-95.61255
77351,Livingston,30.712538,-94.89915
75398,Dallas,32.767268,-96.777626
76195,Fort Worth,32.771419,-97.291484
77434,Eagle Lake,29.575458,-96.32079
79958,El Paso,31.694842,-106.299987
77079,Houston,29.773018,-95.60125
76105,Fort Worth,32.724831,-97.26992
79018,Channing,35.718644,-102.25186
79025,Dawn,34.92765,-102.21997
76380,Seymour,33.594956,-99.28506
76836,Doole,31.217152,-99.347156
75357,Dallas,32.767268,-96.777626
76001,Arlington,32.634203,-97.14403
75476,Ravenna,33.695647,-96.23381
76542,Killeen,31.027003,-97.76717
79714,Andrews,32.345871,-102.56767
77231,Houston,29.83399,-95.434241
78641,Leander,30.547001,-97.87006
79996,El Paso,31.694842,-106.299987
77268,Houston,29.83399,-95.434241
79423,Lubbock,33.496603,-101.86923
79745,Kermit,31.847071,-103.08399
75023,Plano,33.054671,-96.73506
75135,Caddo Mills,33.075653,-96.23774
75219,Dallas,32.812462,-96.81412
75492,Windom,33.566266,-96.01082
75973,Shelbyville,31.735326,-93.90706
76164,Fort Worth,32.771419,-97.291484
76885,Valley Spring,30.904481,-98.79242
77010,Houston,29.754728,-95.36216
77363,Plantersville,30.281863,-95.85326
79989,El Paso,31.694842,-106.299987
77617,Gilchrist,29.507243,-94.52028
78252,San Antonio,29.335577,-98.70173
75862,Trinity,30.94481,-95.33298
76193,Fort Worth,32.771419,-97.291484
79553,Stamford,32.943145,-99.81595
76007,Arlington,32.771419,-97.291484
77878,Snook,30.490162,-96.4698
78549,Hargill,26.44489,-98.01478
75972,San Augustine,31.514959,-94.16169
78709,Austin,30.326374,-97.771258
78161,Sutherland Springs,29.273819,-98.05424
78060,Oakville,28.421814,-98.071902
78409,Corpus Christi,27.806753,-97.50971
75964,Nacogdoches,31.61099,-94.70503
77201,Houston,29.83399,-95.434241
75087,Rockwall,32.93382,-96.45446
79918,El Paso,31.831782,-106.390656
78879,Rio Frio,29.628266,-99.73847
79789,Wink,31.753101,-103.15737
79836,Clint,31.570185,-106.2133
75403,Greenville,33.218505,-96.048665
78108,Cibolo,29.574127,-98.23308
79181,Amarillo,35.401475,-101.895089
79257,Silverton,34.444761,-101.32582
79978,El Paso,31.799275,-106.382757
75315,Dallas,32.767268,-96.777626
77373,Spring,30.056394,-95.38961
75157,Rosser,32.455407,-96.439495
79174,Amarillo,35.401475,-101.895089
88519,El Paso,31.694842,-106.299987
75420,Brashear,33.052712,-95.72124
77005,Houston,29.717529,-95.42821
78164,Yorktown,28.988817,-97.51773
78616,Dale,29.928764,-97.56317
78008,Campbellton,28.759107,-98.2173
76856,Mason,30.75159,-99.23238
76908,Goodfellow AFB,31.39577,-100.68959
77476,Simonton,29.686804,-95.99738
77735,Tomball,30.095391,-95.628023
79109,Amarillo,35.171903,-101.87581
75452,Leonard,33.385224,-96.24782
75765,Hawkins,32.617073,-95.22445
77641,Port Arthur,29.847569,-94.129733
75228,Dallas,32.825227,-96.67955
77484,Waller,30.068888,-95.92499
75901,Lufkin,31.330567,-94.68667
78374,Portland,27.884565,-97.32054
75387,Dallas,32.767268,-96.777626
77088,Houston,29.879213,-95.45028
77516,Angleton,29.183991,-95.465083
78256,San Antonio,29.623533,-98.62493
78543,Elsa,26.298611,-97.99464
78729,Austin,30.451348,-97.76588
76623,Avalon,32.221421,-96.7832
75928,Bon Wier,30.680344,-93.68535
77066,Houston,29.959439,-95.49694
76677,Perry,31.254242,-96.937574
77566,Lake Jackson,29.036879,-95.44103
79405,Lubbock,33.570035,-101.84984
76310,Wichita Falls,33.841948,-98.5624
76565,Pottsville,31.650023,-98.36186
77404,Bay City,28.798156,-95.651058
78403,Corpus Christi,27.777,-97.463213
75359,Dallas,32.767268,-96.777626
75262,Dallas,32.767268,-96.777626
76234,Decatur,33.263039,-97.55657
76882,Talpa,31.801928,-99.68057
77406,Richmond,29.50401,-95.919107
78270,San Antonio,29.437532,-98.461582
78748,Austin,30.17202,-97.82265
78959,Waelder,29.697311,-97.29077
79065,Pampa,35.533093,-100.96041
79731,Crane,31.389079,-102.35059
76681,Richland,31.90869,-96.40744
77461,Needville,29.401461,-95.82334
77633,Brenham,30.158637,-96.407936
79034,Follett,36.397469,-100.16168
76068,Mineral Wells,32.759769,-98.316175
76308,Wichita Falls,33.859798,-98.54064
78469,Corpus Christi,27.777,-97.463213
79331,Lamesa,32.714521,-101.94086
79606,Abilene,32.360362,-99.79886
75958,Martinsville,31.534162,-94.639022
76454,Gorman,32.214932,-98.68404
76554,Little River,30.985136,-97.35508
88534,El Paso,31.694842,-106.299987
76803,Brownwood,31.763882,-98.936021
76853,Lometa,31.238292,-98.40241
78336,Aransas Pass,27.915764,-97.15436
76513,Belton,31.073329,-97.48642
76544,Killeen,31.148447,-97.80918
77371,Shepherd,30.488028,-94.99963
78591,Santa Elena,26.749896,-98.583016
79043,Hart,34.423414,-102.12132
75173,Nevada,33.048275,-96.42153
75386,Dallas,32.767268,-96.777626
79954,El Paso,31.694842,-106.299987
77203,Houston,29.83399,-95.434241
77508,Pasadena,29.569927,-95.106637
77616,Fred,30.564151,-94.2076
77873,Richards,30.56335,-95.8337
79987,El Paso,31.694842,-106.299987
78156,Seguin,29.611797,-97.971208
78608,Briggs,30.9306,-97.90929
79095,Wellington,34.858194,-100.20763
75450,Lake Creek,33.404332,-95.52546
79783,Tarzan,32.369835,-102.03317
77433,Cypress,29.884175,-95.72219
79699,Abilene,32.466474,-99.711665
75801,Palestine,31.779481,-95.63325
78358,Fulton,28.065865,-97.04066
79755,Midkiff,31.608083,-101.86524
73301,Austin,30.326374,-97.771258
88554,El Paso,31.694842,-106.299987
76487,Poolville,33.009411,-97.89968
76831,Castell,30.776619,-98.95072
78283,San Antonio,29.437532,-98.461582
78724,Austin,30.294148,-97.62863
78949,Muldoon,29.847433,-97.07988
79770,Orla,31.383297,-103.556598
78004,Bergheim,29.903508,-98.55789
79118,Amarillo,35.100501,-101.80606
77977,Placedo,28.691718,-96.82657
75239,Dallas,32.767268,-96.777626
76950,Sonora,30.453299,-100.56983
77334,Dodge,30.758511,-95.3688
75404,Greenville,33.056265,-96.080973
76541,Killeen,31.117874,-97.72924
77018,Houston,29.825476,-95.42619
77705,Beaumont,30.009609,-94.11401
76106,Fort Worth,32.798429,-97.354
77991,Vanderbilt,28.82037,-96.61273
78764,Austin,30.445502,-97.659533
77410,Cypress,29.83399,-95.434241
78559,La Feria,26.149453,-97.82923
77866,Millican,30.466986,-96.20408
78623,Fischer,29.960139,-98.21846
79411,Lubbock,33.570435,-101.86184
77511,Alvin,29.41148,-95.24475
78644,Lockhart,29.872165,-97.68093
75503,Texarkana,33.476844,-94.09637
76043,Glen Rose,32.228184,-97.77198
76442,Comanche,31.906683,-98.60618
77237,Houston,29.83399,-95.434241
76462,Lipan,32.517753,-98.03379
78364,Kingsville,27.342872,-97.70355
78758,Austin,30.384204,-97.70392
77316,Montgomery,30.329017,-95.64985
76099,Grapevine,32.771419,-97.291484
77725,Beaumont,29.847569,-94.129733
75034,Frisco,33.143792,-96.83938
78944,Industry,29.975083,-96.50081
79924,El Paso,31.901737,-106.41827
76930,Barnhart,31.148007,-101.18632
88560,El Paso,31.694842,-106.299987
79464,Lubbock,33.489623,-102.010895
79986,El Paso,31.694842,-106.299987
75838,Donie,31.476671,-96.22212
76505,Temple,31.036287,-97.492017
79536,Merkel,32.473679,-100.02753
78880,Rocksprings,30.065334,-100.17202
77303,Conroe,30.368543,-95.40217
78353,Encino,26.894094,-98.21561
75605,Longview,32.557684,-94.74353
75701,Tyler,32.325214,-95.29467
76845,Gouldbusk,31.547652,-99.47679
77902,Victoria,28.925513,-97.100624
78360,Guerra,27.071318,-98.686327
76241,Gainesville,33.610384,-97.03692
75222,Dallas,32.767268,-96.777626
75426,Clarksville,33.626445,-95.03534
76655,Lorena,31.393062,-97.16178
77045,Houston,29.629111,-95.43841
77830,Anderson,30.536223,-96.0229
77994,Westhoff,29.195217,-97.47799
79040,Gruver,36.27128,-101.49483
78362,Ingleside,27.866143,-97.20712
79313,Anton,33.823216,-102.16413
76268,Southmayd,33.621928,-96.7649
78418,Corpus Christi,27.633433,-97.26792
78609,Buchanan Dam,30.744225,-98.43167
76134,Fort Worth,32.649855,-97.33358
77331,Coldspring,30.619313,-95.13802
79371,Sudan,34.068183,-102.52625
78667,San Marcos,30.054378,-98.003574
79003,Allison,35.629034,-100.09291
79406,Lubbock,33.583798,-101.87525
75773,Mineola,32.674657,-95.46982
76203,Denton,33.246457,-97.127027
76797,Waco,31.553646,-97.203166
77020,Houston,29.775927,-95.31836
77359,Oakhurst,30.735628,-95.30405
78411,Corpus Christi,27.733058,-97.38542
79841,Sierra Blanca,32.624796,-103.597991
88510,El Paso,31.694842,-106.299987
75806,Little Elm,33.169075,-96.904315
76094,Arlington,32.771419,-97.291484
77874,Waller,30.049881,-95.929015
78599,Weslaco,26.409709,-98.224206
77510,Santa Fe,29.371171,-95.08552
78468,Corpus Christi,27.777,-97.463213
78720,Austin,30.326374,-97.771258
79345,Meadow,33.344598,-102.28814
75390,Dallas,32.767268,-96.777626
75172,Wilmer,32.598845,-96.6831
76546,Killeen,31.036287,-97.492017
79221,Aiken,34.071514,-101.30313
88595,El Paso,31.694842,-106.299987
79114,Amarillo,35.050003,-101.817485
79994,El Paso,31.694842,-106.299987
75684,Overton,32.26958,-94.94935
77270,Houston,29.83399,-95.434241
77670,Vidor,30.054793,-93.903108
76643,Hewitt,31.453789,-97.19502
77494,Katy,29.760833,-95.81104
88538,El Paso,31.694842,-106.299987
78160,Stockdale,29.237074,-97.95439
76522,Copperas Cove,31.131076,-97.91666
78387,Sinton,28.054995,-97.5133
79703,Midland,31.984823,-102.13015
75260,Dallas,32.767268,-96.777626
79116,Amarillo,35.245398,-101.999047
78622,Fentress,29.760052,-97.77727
79012,Bushland,35.191525,-102.08831
79926,El Paso,31.694842,-106.299987
77842,College Station,30.65212,-96.341012
75101,Bardwell,32.267846,-96.6967
75779,Neches,31.794191,-95.661964
76085,Weatherford,32.847183,-97.6986
78704,Austin,30.246309,-97.76087
79913,El Paso,31.93728,-106.572393
75229,Dallas,32.895376,-96.85985
76828,Burkett,32.023828,-99.23597
77007,Houston,29.772627,-95.40319
79062,Morse,36.004239,-101.54672
76957,Wall,31.359844,-100.206705
76049,Granbury,32.440376,-97.72002
77014,Houston,29.979063,-95.47294
78142,Normanna,28.52604,-97.78256
78738,Austin,30.340111,-97.98869
76556,Milano,30.702352,-96.85039
77661,Stowell,29.780948,-94.390045
77325,Humble,29.83399,-95.434241
79035,Friona,34.631714,-102.72658
75051,Grand Prairie,32.728982,-97.00428
75943,Douglass,31.654777,-94.90988
77441,Fulshear,29.685917,-95.91804
77987,Sweet Home,29.347975,-96.900331
79054,Lefors,35.444006,-100.80119
76637,Cranfills Gap,31.771383,-97.82298
77426,Chappell Hill,30.132693,-96.25388
78269,San Antonio,29.437532,-98.461582
79404,Lubbock,33.549785,-101.82634
79416,Lubbock,33.591877,-101.94754
78734,Austin,30.378675,-97.95028
76632,Chilton,31.287625,-97.06076
77445,Hempstead,30.096649,-96.06979
77565,Kemah,29.541285,-95.02996
78568,Lozano,26.190402,-97.542263
75397,Dallas,32.767268,-96.777626
75788,Sacul,31.825527,-94.91759
78047,Laredo,27.564249,-99.471719
76874,Roosevelt,30.480128,-100.1175
77038,Houston,29.917814,-95.44138
78404,Corpus Christi,27.770056,-97.4001
79226,Clarendon,34.971719,-100.90662
75651,Harleton,32.6941,-94.54519
77369,Rye,30.480319,-94.75643
79975,El Paso,31.694842,-106.299987
77532,Crosby,29.920121,-95.07327
75206,Dallas,32.826128,-96.7712
78014,Cotulla,28.43544,-99.21676
78654,Marble Falls,30.566681,-98.30756
79710,Midland,31.869259,-102.031726
75166,Lavon,33.022051,-96.43601
75560,Douglassville,33.189862,-94.37468
78953,Rosanky,29.846862,-97.3318
78595,Sullivan City,26.272363,-98.5587
75049,Garland,32.767268,-96.777626
78352,Edroy,27.973465,-97.68169
78381,Rockport,28.013108,-97.09364
77451,Kendleton,29.447947,-96.0007
76463,Mingus,32.493233,-98.41805
78586,San Benito,26.111261,-97.63519
78739,Austin,30.17207,-97.87284
79847,Salt Flat,31.820395,-105.30882
75235,Dallas,32.828128,-96.84612
75601,Longview,32.505248,-94.73172
76490,Whitt,32.95802,-98.01942
78576,Penitas,26.24901,-98.45014
79730,Coyanosa,31.17942,-103.03594
77627,Nederland,29.974013,-93.99986
77713,Beaumont,30.090135,-94.2467
79708,Midland,31.869259,-102.031726
77364,Pointblank,30.756728,-95.20485
75126,Forney,32.745373,-96.46038
75652,Henderson,32.194938,-94.75852
78505,Mcallen,26.409709,-98.224206
77050,Houston,29.896156,-95.28687
75663,Kilgore,32.386976,-94.895098
76526,Flat,31.295568,-97.582152
77440,Elmaton,28.887522,-96.14826
79380,Whitharral,33.733418,-102.33103
79834,Big Bend National Park,29.321321,-103.21085
77374,Thicket,30.378705,-94.64906
75669,Long Branch,32.03719,-94.57688
77337,Hufsmith,29.83399,-95.434241
76303,Wichita Falls,33.897073,-98.459792
78143,Pandora,29.248705,-97.84412
78725,Austin,30.231583,-97.60992
76372,Newcastle,33.224562,-98.86043
78251,San Antonio,29.466061,-98.67004
77720,Beaumont,29.847569,-94.129733
78634,Hutto,30.540874,-97.54611
76225,Alvord,33.360331,-97.69158
75153,Powell,32.142925,-96.32632
79830,Alpine,30.011559,-103.56444
76630,Bruceville,31.337382,-97.22762
78772,Austin,30.326374,-97.771258
79124,Amarillo,35.244819,-101.95391
76424,Breckenridge,32.761058,-98.92225
79036,Fritch,35.625603,-101.61413
79550,Snyder,32.747707,-100.9153
75187,Mesquite,32.767268,-96.777626
76088,Weatherford,32.842085,-97.90477
76485,Peaster,32.779315,-97.805502
75209,Dallas,32.845978,-96.82552
75360,Dallas,32.767268,-96.777626
77442,Garwood,29.424483,-96.45923
75803,Palestine,31.760418,-95.656779
79220,Afton,33.749303,-100.76393
79821,Anthony,31.977553,-106.60469
76949,Silver,32.047723,-100.69452
77393,Spring,30.329016,-95.463474
78682,Round Rock,30.656817,-97.602552
78769,Austin,30.326374,-97.771258
79402,Lubbock,33.592235,-101.851144
79525,Hawley,32.616906,-99.82211
75437,Dike,33.253911,-95.47125
78262,San Antonio,29.449332,-98.290394
78375,Premont,27.368433,-98.12184
79923,El Paso,31.694842,-106.299987
75425,Chicota,33.65973,-95.582906
75710,Tyler,32.347549,-95.306528
75956,Kirbyville,30.670556,-93.93811
76660,Malone,31.928342,-96.88213
75556,Bloomburg,33.142532,-94.05585
76714,Waco,31.553646,-97.203166
77448,Hungerford,29.401714,-96.07526
77622,Hamshire,29.870794,-94.2896
78287,San Antonio,29.437532,-98.461582
78640,Kyle,29.996916,-97.84756
79704,Midland,31.869259,-102.031726
75490,Trenton,33.435618,-96.3324
75505,Texarkana,33.46238,-94.0715
75444,Golden,32.730279,-95.56286
76025,Plano,33.104374,-96.766109
78835,Burton,30.178439,-96.591092
79490,Lubbock,33.610018,-101.821292
88547,El Paso,31.694842,-106.299987
75022,Flower Mound,33.024778,-97.10206
75156,Gun Barrel City,32.290819,-96.114108
77099,Houston,29.668489,-95.5869
77349,Huntsville,30.78128,-95.59527
75461,Paris,33.663213,-95.460797
75140,Grand Saline,32.661299,-95.71738
76124,Fort Worth,32.771419,-97.291484
76550,Lampasas,31.06639,-98.19192
78877,Quemado,28.917675,-100.60332
78391,Tynan,28.169309,-97.75404
78747,Austin,30.132855,-97.76187
79752,McCamey,31.156902,-102.19598
75181,Mesquite,32.735812,-96.55886
77258,Houston,29.83399,-95.434241
77840,College Station,30.614647,-96.32641
75121,Copeville,33.079946,-96.41788
77012,Houston,29.719778,-95.27906
78007,Calliham,28.453052,-98.37384
75554,Avery,33.563837,-94.78066
76009,Alvarado,32.408183,-97.20956
75636,Cason,33.035716,-94.81589
76849,Junction,30.478782,-99.77444
76905,San Angelo,31.515684,-100.34896
77501,Pasadena,29.83399,-95.434241
78263,San Antonio,29.358153,-98.31978
78885,Vanderpool,29.785042,-99.55361
75660,Judson,32.51121,-94.783493
78571,Salado,30.916863,-97.485039
77708,Beaumont,30.141361,-94.16488
78756,Austin,30.320206,-97.74177
79543,Roby,32.739964,-100.38106
75189,Royse City,32.960512,-96.31278
76122,Fort Worth,32.771419,-97.291484
76533,Heidenheimer,31.049621,-97.493616
76844,Goldthwaite,31.460782,-98.52618
78736,Austin,30.245558,-97.94177
79407,Lubbock,33.567134,-101.98329
88555,El Paso,31.694842,-106.299987
78677,Wrightsboro,29.447211,-97.494649
79838,Fabens,31.490587,-106.15381
75137,Duncanville,32.634835,-96.91343
77254,Houston,29.83399,-95.434241
77287,Houston,29.83399,-95.434241
75201,Dallas,32.787629,-96.79941
77017,Houston,29.687829,-95.25478
77343,Huntsville,30.78128,-95.59527
79506,Blackwell,32.106949,-100.31228
78765,Austin,30.326374,-97.771258
75019,Coppell,32.967341,-96.98656
76185,Fort Worth,32.771419,-97.291484
88515,El Paso,31.694842,-106.299987
75350,Dallas,32.767268,-96.777626
77202,Houston,29.83399,-95.434241
77332,Dallardsville,30.817866,-94.869052
79932,El Paso,31.865696,-106.59982
75798,Tyler,32.411237,-95.289903
75925,Alto,31.626263,-95.05495
78691,Pflugerville,30.326374,-97.771258
76567,Rockdale,30.646291,-97.01149
77376,Votaw,30.437704,-94.68614
79009,Bovina,34.51748,-102.89478
77380,Spring,30.143485,-95.46821
77839,Clay,30.341403,-96.526669
75342,Dallas,32.767268,-96.777626
75346,Dallas,32.767268,-96.777626
76059,Keene,32.39286,-97.3275
76706,Waco,31.514267,-97.11807
79373,Tahoka,33.199867,-101.81949
79769,Odessa,31.746572,-102.566993
78133,Canyon Lake,29.883884,-98.25219
78258,San Antonio,29.649797,-98.50406
75076,Pottsboro,33.818635,-96.69338
75182,Sunnyvale,32.803646,-96.56965
76108,Fort Worth,32.762563,-97.48079
77707,Beaumont,30.065029,-94.18031
77065,Houston,29.927675,-95.60547
79528,Jayton,33.238378,-100.57389
75378,Dallas,32.767268,-96.777626
75249,Dallas,32.639661,-96.95317
77650,Port Bolivar,29.43186,-94.68252
75604,Longview,32.523779,-94.80692
76265,Saint Jo,33.701692,-97.53029
78851,Dryden,30.075997,-101.95574
75449,Ladonia,33.427504,-95.95578
75606,Longview,32.369393,-94.616062
75858,Ratcliff,31.369811,-95.09184
76051,Grapevine,32.93195,-97.08498
77226,Houston,29.83399,-95.434241
77864,Madisonville,30.956147,-95.91606
88530,El Paso,31.694842,-106.299987
78674,Weir,30.674667,-97.59286
78779,Austin,30.326374,-97.771258
75754,Ben Wheeler,32.412451,-95.66711
75110,Corsicana,32.078228,-96.44612
78130,New Braunfels,29.699844,-98.10754
79123,Amarillo,35.401475,-101.895089
78298,San Antonio,29.437532,-98.461582
79061,Mobeetie,35.534558,-100.44105
79336,Levelland,33.609208,-102.41478
79768,Odessa,31.869142,-102.542944
75146,Lancaster,32.590063,-96.75892
77267,Houston,29.83399,-95.434241
75766,Jacksonville,31.953855,-95.25281
88546,El Paso,31.694842,-106.299987
77367,Riverside,30.848603,-95.39644
76429,Caddo,32.74154,-98.67089
77454,Lissie,29.553544,-96.22224
78761,Austin,30.326374,-97.771258
79953,El Paso,31.694842,-106.299987
75566,Marietta,33.157897,-94.50853
75644,Gilmer,32.727128,-94.9577
76050,Grandview,32.27442,-97.19282
78045,Laredo,27.648832,-99.53371
79512,Colorado City,32.368824,-100.93689
76680,Reagan,31.190291,-96.81034
77385,Conroe,30.18771,-95.43893
78746,Austin,30.287739,-97.8022
76848,Hext,30.847791,-99.52617
77444,Guy,29.29995,-95.79753
78293,San Antonio,29.437532,-98.461582
76201,Denton,33.226598,-97.13061
77021,Houston,29.695879,-95.3573
77488,Wharton,29.307347,-96.09055
77963,Goliad,28.685027,-97.40221
78373,Port Aransas,27.818477,-97.07998
78659,Paige,30.210685,-97.11662
75053,Grand Prairie,32.767268,-96.777626
75428,Commerce,33.25868,-95.91061
76039,Euless,32.858727,-97.08453
75236,Dallas,32.685533,-96.91746
78972,Austin,30.31536,-97.663293
79320,Bula,33.861914,-102.67355
77090,Houston,30.012711,-95.45132
77422,Brazoria,29.011241,-95.58071
77870,New Baden,31.050207,-96.42982
78154,Schertz,29.577359,-98.2787
76226,Argyle,33.105309,-97.16294
76443,Cross Plains,32.103546,-99.17874
76578,Thrall,30.55063,-97.24963
76890,Zephyr,31.685153,-98.77741
77979,Port Lavaca,28.604717,-96.63023
79563,Tye,32.442465,-99.87238
75485,Westminster,33.362227,-96.46299
75488,Telephone,33.76225,-96.00418
75680,Minden,32.00923,-94.71766
76014,Arlington,32.694666,-97.08748
88565,El Paso,31.694842,-106.299987
75668,Lone Star,32.920957,-94.69722
77837,Calvert,30.993313,-96.6808
75144,Kerens,32.120271,-96.22474
77262,Houston,29.83399,-95.434241
77362,Pinehurst,30.152265,-95.67556
77656,Silsbee,30.390569,-94.18056
77802,Bryan,30.655348,-96.34056
79117,Amarillo,35.308889,-101.843033
75930,Bronson,31.340382,-94.02062
76178,Fort Worth,32.771419,-97.291484
78605,Bertram,30.760216,-98.03579
78730,Austin,30.359935,-97.83125
75284,Dallas,32.767268,-96.777626
78121,La Vernia,29.351202,-98.11528
78379,Riviera,27.299073,-97.78433
77855,Flynn,31.134863,-96.11889
78950,New Ulm,29.909257,-96.49617
75455,Mount Pleasant,33.166739,-94.9814
76644,Laguna Park,31.897381,-97.64097
76886,Veribest,31.349348,-100.494912
75451,Leesburg,32.971224,-95.11339
75713,Tyler,32.411237,-95.289903
76116,Fort Worth,32.72228,-97.44409
76117,Haltom City,32.805379,-97.27036
76444,De Leon,32.122804,-98.55799
76520,Cameron,30.851922,-96.96323
77431,Danciger,29.173701,-95.820719
77541,Freeport,28.975247,-95.34357
78131,New Braunfels,29.79918,-98.338419
78212,San Antonio,29.460381,-98.49649
75057,Lewisville,33.04867,-96.99321
75852,Midway,30.984335,-95.71669
77632,Orange,30.182584,-93.79964
79022,Dalhart,36.090281,-102.60769
79526,Hermleigh,32.627475,-100.76416
79251,Quail,34.975549,-100.44628
79357,Ralls,33.667836,-101.38794
79742,Grandfalls,31.34197,-102.8564
79855,Van Horn,31.099326,-104.69511
79225,Chillicothe,34.261752,-99.5202
77218,Houston,29.83399,-95.434241
77450,Katy,29.758799,-95.74751
78766,Austin,30.442202,-97.62333
79985,El Paso,31.694842,-106.299987
75367,Dallas,32.767268,-96.777626
76015,Arlington,32.691393,-97.13546
78159,Smiley,29.269305,-97.60044
78284,San Antonio,29.442632,-98.491344
78675,Willow City,30.460464,-98.71911
75849,Latexo,31.398448,-95.4737
76036,Crowley,32.573816,-97.38491
76198,Fort Worth,32.771419,-97.291484
76244,Keller,32.771419,-97.291484
75248,Dallas,32.968123,-96.78863
75802,Palestine,31.926836,-95.579561
88514,El Paso,31.694842,-106.299987
76867,Pear Valley,31.217152,-99.347156
75265,Dallas,32.767268,-96.777626
77342,Huntsville,30.78128,-95.59527
77861,Iola,30.752599,-96.09691
78207,San Antonio,29.423932,-98.5235
78289,San Antonio,29.437532,-98.461582
75429,Commerce,33.237722,-95.90886
76084,Venus,32.434322,-97.09988
76181,Fort Worth,32.771419,-97.291484
79518,Girard,33.361766,-100.6895
77850,Concord,31.313816,-95.993482
78671,Stonewall,30.230188,-98.62152
79231,Dougherty,33.943005,-101.09236
76261,Ringgold,33.817816,-97.94159
77436,Egypt,29.375762,-96.227967
78145,Pawnee,28.650728,-98.00056
78502,Mcallen,26.25671,-98.198929
78658,Ottine,29.592212,-97.58922
75443,Gober,33.469719,-96.111103
78670,Staples,29.777564,-97.81966
78843,Laughlin A F B,29.356379,-100.79269
78410,Corpus Christi,27.846568,-97.59435
75755,Big Sandy,32.649482,-95.1259
88579,El Paso,31.694842,-106.299987
77027,Houston,29.739029,-95.44364
78235,San Antonio,29.33906,-98.42793
78719,Austin,30.163458,-97.67711
79346,Morton,33.688713,-102.81775
79858,Fabens,31.509199,-106.151727
75267,Dallas,32.767268,-96.777626
77328,Cleveland,30.188885,-94.804065
78847,Del Rio,29.763171,-101.230032
76471,Rising Star,32.105459,-98.96537
79764,Odessa,31.86577,-102.45367
75780,New Summerfield,31.782048,-95.164021
76133,Fort Worth,32.655401,-97.37765
77502,Pasadena,29.680079,-95.19966
78711,Austin,30.326374,-97.771258
78726,Austin,30.439053,-97.83503
79347,Muleshoe,34.206848,-102.78511
76652,Kopperl,32.109599,-97.54276
77462,Newgulf,29.298532,-96.241147
78861,Hondo,29.379516,-99.12665
75042,Garland,32.915625,-96.67399
75225,Dallas,32.862876,-96.7904
75410,Alba,32.793512,-95.63182
75478,Saltillo,33.17329,-95.36663
77437,El Campo,29.197701,-96.2774
79565,Westbrook,32.358785,-101.07207
75258,Dallas,32.767268,-96.777626
78593,Santa Rosa,26.27109,-97.82904
79087,Texline,36.316305,-102.97676
75208,Dallas,32.751464,-96.83864
79367,Smyer,33.588639,-102.16126
79781,Sheffield,30.703917,-101.87223
76041,Forreston,32.244026,-96.86701
76266,Sanger,33.358871,-97.18944
75313,Dallas,32.767268,-96.777626
75089,Rowlett,32.923924,-96.54697
76678,Prairie Hill,31.652858,-96.78857
76131,Fort Worth,32.873017,-97.34622
77357,New Caney,30.170751,-95.17832
77060,Houston,29.933367,-95.39916
76687,Thornton,31.376261,-96.49614
79110,Amarillo,35.157403,-101.86114
75447,Ivanhoe,33.774197,-96.12045
77665,Winnie,29.820542,-94.39965
78009,Castroville,29.356455,-98.88062
78039,La Coste,29.312661,-98.81591
77076,Houston,29.858525,-95.38178
88550,El Paso,31.694842,-106.299987
78749,Austin,30.216108,-97.85828
78026,Jourdanton,28.85458,-98.5528
78413,Corpus Christi,27.687792,-97.40165
75217,Dallas,32.72238,-96.67582
75661,Karnack,32.66797,-94.16846
75752,Winona,32.223828,-95.785482
75856,Pennington,31.21349,-95.23475
76113,Fort Worth,32.771419,-97.291484
76547,Killeen,31.036287,-97.492017
77233,Houston,29.83399,-95.434241
77288,Houston,29.83399,-95.434241
79608,Abilene,32.302132,-99.890737
79966,El Paso,31.694842,-106.299987
88568,El Paso,31.694842,-106.299987
76887,Voca,30.973049,-99.17091
78884,Utopia,29.634216,-99.48894
79973,El Paso,31.694842,-106.299987
75643,Gary,32.019931,-94.37287
77466,Pattison,29.818871,-95.99945
77975,Moulton,29.57449,-97.12675
75705,Tyler,32.364281,-95.08971
76877,San Saba,31.190826,-98.74134
78054,Macdona,29.325602,-98.732187
78257,San Antonio,29.646618,-98.6099
77377,Tomball,29.83399,-95.434241
78931,Bleiblerville,29.849283,-96.313271
79024,Darrouzett,36.441178,-100.33123
79168,Amarillo,35.401475,-101.895089
79356,Post,33.245276,-101.37638
76875,Rowena,31.611317,-100.033
75654,Henderson,32.104159,-94.85568
76205,Denton,33.16156,-97.10376
78067,San Ygnacio,27.198571,-99.36781
75630,Avinger,32.854406,-94.55859
77025,Houston,29.69023,-95.43474
76636,Covington,32.177765,-97.27284
77290,Houston,29.83399,-95.434241
77611,Bridge City,30.026093,-93.84071
78063,Pipe Creek,29.641551,-98.93407
78265,San Antonio,29.437532,-98.461582
78785,Austin,30.326374,-97.771258
75650,Hallsville,32.507527,-94.55839
77335,Goodrich,30.595651,-94.94597
78735,Austin,30.250761,-97.84469
75667,Laneville,31.981458,-94.85741
76017,Arlington,32.659277,-97.16435
77545,Fresno,29.526728,-95.45984
78577,Pharr,26.201284,-98.18619
78619,Driftwood,30.103644,-98.03875
77240,Houston,29.83399,-95.434241
77660,Spurger,30.635615,-94.1705
78402,Corpus Christi,27.829732,-97.4016
75471,Pickton,33.041578,-95.39527
75354,Dallas,32.767268,-96.777626
75431,Como,33.027493,-95.46605
77597,Wallisville,29.843158,-94.70376
78205,San Antonio,29.425932,-98.48931
79946,El Paso,31.694842,-106.299987
76486,Perrin,33.024726,-98.05788
76880,Star,31.477095,-98.630919
77986,Sublime,29.487564,-96.794605
78093,Laredo,27.492996,-99.463668
79002,Alanreed,35.201105,-100.74939
79777,Pyote,31.535153,-103.12722
75658,Joinerville,32.195927,-94.906515
77032,Houston,29.944922,-95.34152
77271,Houston,29.83399,-95.434241
77836,Caldwell,30.517099,-96.67247
75066,Carrollton,32.959222,-96.853877
75396,Dallas,32.767268,-96.777626
75489,Tom Bean,33.521578,-96.48373
77092,Houston,29.833326,-95.47644
75063,Irving,32.916865,-96.97349
77062,Houston,29.57493,-95.13238
78227,San Antonio,29.405424,-98.63832
79201,Childress,34.38587,-100.28401
79414,Lubbock,33.550335,-101.91661
79508,Buffalo Gap,32.280068,-99.82808
75071,Frisco,33.225107,-96.638614
75432,Cooper,33.377005,-95.68573
77244,Houston,29.83399,-95.434241
77453,Lane City,29.170387,-96.014159
77614,Deweyville,30.293684,-93.74329
75370,Dallas,32.767268,-96.777626
75371,Dallas,32.767268,-96.777626
77530,Channelview,29.786656,-95.12214
79843,Marfa,30.217129,-104.22045
77041,Houston,29.85873,-95.57243
79086,Sunray,36.057372,-101.76599
79401,Lubbock,33.578935,-101.8316
79999,El Paso,31.694842,-106.299987
88549,El Paso,31.694842,-106.299987
75687,Price,32.151755,-94.955432
77970,La Ward,28.865213,-96.4397
76901,San Angelo,31.474132,-100.5198
75310,Dallas,32.767268,-96.777626
75951,Jasper,30.941282,-94.03455
76475,Strawn,32.628147,-98.48517
76491,Woodson,33.029698,-99.03622
77252,Houston,29.83399,-95.434241
77575,Liberty,30.066734,-94.76595
79351,Odonnell,32.951473,-101.83895
79377,Welch,32.931786,-102.14673
75098,Wylie,33.011975,-96.53607
76504,Temple,31.09954,-97.35766
76439,Dennis,32.632495,-97.957483
75845,Groveton,31.090648,-95.07826
76716,Waco,31.553646,-97.203166
77512,Alvin,29.362879,-95.27605
77560,Hankamer,29.860106,-94.58468
78114,Floresville,29.150937,-98.17929
78363,Kingsville,27.496472,-97.86808
78564,Lopeno,26.945418,-99.203985
79172,Amarillo,35.401475,-101.895089
79412,Lubbock,33.549135,-101.85846
77415,Cedar Lane,28.936476,-95.72292
78603,Bebe,29.447211,-97.494649
79230,Dodson,34.698438,-100.06623
79301,Earth,34.230527,-102.41085
79364,Slaton,33.437291,-101.65054
79430,Lubbock,33.610018,-101.821292
75295,Dallas,32.767268,-96.777626
77841,College Station,30.57258,-96.327044
79342,Loop,32.893447,-102.30958
79949,El Paso,31.694842,-106.299987
77623,High Island,29.571106,-94.4045
75412,Bagwell,33.815996,-95.14402
77243,Houston,29.83399,-95.434241
75158,Scurry,32.466891,-96.38502
75423,Celeste,33.291418,-96.20273
75456,Mount Pleasant,33.19045,-94.967456
76635,Coolidge,31.734571,-96.66388
76671,Morgan,32.011671,-97.5324
78113,Falls City,28.972553,-98.06964
75935,Center,31.769105,-94.18997
76092,Southlake,32.946678,-97.14523
88553,El Paso,31.694842,-106.299987
78296,San Antonio,29.437532,-98.461582
79314,Bledsoe,33.616833,-103.01952
77464,Orchard,29.602015,-95.96882
77469,Richmond,29.584172,-95.747
78788,Austin,30.326374,-97.771258
76708,Waco,31.584132,-97.18558
78222,San Antonio,29.379902,-98.38926
78710,Austin,30.351953,-97.715123
79236,Guthrie,33.652122,-100.35199
75685,Panola,32.183774,-94.308713
75417,Bogata,33.462828,-95.193
79539,O Brien,33.379469,-99.89708
88548,El Paso,31.694842,-106.299987
76311,Sheppard AFB,33.970725,-98.49127
75043,Garland,32.854893,-96.60211
77368,Romayor,30.453845,-94.83674
75088,Rowlett,32.897459,-96.5497
77962,Ganado,29.02864,-96.50513
79237,Hedley,34.874151,-100.63288
76519,Burlington,31.002164,-97.0358
78680,Round Rock,30.656817,-97.602552
79778,Rankin,31.2244,-101.94317
78935,Alleyton,29.698797,-96.45594
79111,Amarillo,35.226552,-101.67875
79976,El Paso,31.694842,-106.299987
75114,Crandall,32.629178,-96.44339
76044,Godley,32.442679,-97.52595
77585,Saratoga,30.304796,-94.52727
78669,Spicewood,30.427733,-98.08062
78466,Corpus Christi,27.777,-97.463213
78945,La Grange,29.909764,-96.8745
77274,Houston,29.83399,-95.434241
79511,Coahoma,32.38737,-101.28147
76955,Vancourt,31.305402,-100.12871
75551,Atlanta,33.118611,-94.1773
78245,San Antonio,29.412338,-98.70484
75915,Lufkin,31.287257,-94.577084
77210,Houston,29.83399,-95.434241
77282,Houston,29.83399,-95.434241
79033,Farnsworth,36.317403,-100.97272
79182,Amarillo,35.401475,-101.895089
77350,Leggett,30.856814,-94.856052
77008,Houston,29.798777,-95.40951
77238,Houston,29.83399,-95.434241
77318,Willis,30.434486,-95.55009
77086,Houston,29.920981,-95.49556
78562,La Villa,26.301385,-97.92547
79245,Memphis,34.715551,-100.53964
78526,Brownsville,25.969007,-97.47211
76228,Bellevue,33.586753,-98.07694
76599,Gatesville,31.470598,-97.734728
77248,Houston,29.83399,-95.434241
75848,Kirvin,31.83272,-96.32126
75569,Nash,33.441774,-94.12531
77026,Houston,29.79437,-95.33395
79566,Wingate,32.109191,-100.10582
78750,Austin,30.438933,-97.80383
75106,Cedar Hill,32.767268,-96.777626
77535,Dayton,30.044219,-94.88864
78064,Pleasanton,28.958803,-98.4639
79107,Amarillo,35.228302,-101.81946
77967,Hochheim,29.098894,-97.365742
78550,Harlingen,26.206602,-97.68776
78210,San Antonio,29.397934,-98.46669
76111,Fort Worth,32.778479,-97.30099
76481,South Bend,32.970869,-98.71204
77000,Houston,29.711257,-95.304936
78642,Liberty Hill,30.702882,-97.9269
79850,Shafter,29.943719,-104.386683
76021,Bedford,32.851678,-97.13849
76095,Bedford,32.771419,-97.291484
76545,Killeen,31.036287,-97.492017
76679,Purdon,31.949312,-96.61514
77664,Warren,30.600866,-94.40604
75502,Texarkana,33.424125,-94.055214
77381,Spring,30.17873,-95.5021
88571,El Paso,31.694842,-106.299987
78140,Nixon,29.292655,-97.76167
78065,Poteet,29.057172,-98.58398
78656,Maxwell,29.887939,-97.83613
78961,Round Top,29.665518,-97.039741
75990,Woodville,30.792674,-94.354476
76484,Palo Pinto,32.722689,-98.33271
76624,Axtell,31.661554,-96.95451
79379,Whiteface,33.600017,-102.61953
75021,Denison,33.742641,-96.51427
75494,Winnsboro,32.922912,-95.28299
78359,Gregory,27.920604,-97.29248
78426,Corpus Christi,27.777,-97.463213
75671,Marshall,32.522659,-94.389476
76086,Weatherford,32.77516,-97.77987
77229,Houston,29.83399,-95.434241
78248,San Antonio,29.589826,-98.52524
79072,Plainview,34.191002,-101.72506
76453,Gordon,32.572618,-98.36399
76693,Wortham,31.787449,-96.44885
75764,Gallatin,31.893439,-95.15272
75957,Timpson,31.902986,-94.391148
76098,Azle,32.895716,-97.563622
75233,Dallas,32.704398,-96.87222
75799,Tyler,32.411237,-95.289903
79104,Amarillo,35.199652,-101.79486
88580,El Paso,31.694842,-106.299987
78240,San Antonio,29.518413,-98.60869
76872,Rochelle,31.314477,-99.17492
78022,George West,28.260148,-98.14978
78285,San Antonio,29.437532,-98.461582
79085,Summerfield,34.743735,-102.506442
79934,El Paso,31.943633,-106.42402
75487,Talco,33.346151,-95.15014
75483,Sulphur Springs,33.168606,-95.585464
78044,Laredo,27.363738,-99.481919
77016,Houston,29.857007,-95.30886
77378,Willis,30.439428,-95.44677
77547,Galena Park,29.737178,-95.23906
78757,Austin,30.349455,-97.73328
78778,Austin,30.326374,-97.771258
75574,Simms,33.328878,-94.53657
75969,Pollok,31.436494,-94.87815
78382,Rockport,28.047744,-97.04818
78427,Corpus Christi,27.777,-97.463213
75320,Dallas,32.767268,-96.777626
75380,Dallas,32.767268,-96.777626
76112,Fort Worth,32.744032,-97.21957
76162,Fort Worth,32.771419,-97.291484
76834,Coleman,31.847973,-99.45514
77082,Houston,29.722704,-95.6314
78279,San Antonio,29.437532,-98.461582
79186,Amarillo,35.401475,-101.895089
77078,Houston,29.849424,-95.25951
77835,Burton,30.181677,-96.61373
75963,Nacogdoches,31.604573,-94.664127
77537,Dickinson,29.469835,-95.005317
77868,Navasota,30.374501,-96.07999
77875,Roans Prairie,30.607534,-95.957945
78355,Falfurrias,27.217893,-98.16479
78369,Mirando City,27.44333,-98.99944
78755,Austin,30.326374,-97.771258
79083,Stinnett,35.844445,-101.48031
79108,Amarillo,35.296948,-101.78641
78830,Big Wells,28.555795,-99.50744
77613,China,30.043401,-94.35853
79010,Boys Ranch,35.459732,-102.14757
77497,Stafford,29.525461,-95.756462
79545,Roscoe,32.422985,-100.55397
75165,Waxahachie,32.397024,-96.83283
76559,Nolanville,31.081777,-97.6138
75497,Yantis,32.906074,-95.55779
75875,Rusk,31.806615,-95.154008
76247,Justin,33.08704,-97.30384
78713,Austin,30.468583,-97.843336
78836,Catarina,28.34884,-99.61238
79325,Farwell,34.389202,-102.89928
76626,Blooming Grove,32.098474,-96.71501
79343,Lorenzo,33.605628,-101.5205
75277,Dallas,32.767268,-96.777626
75934,Camden,30.907239,-94.7312
76097,Burleson,32.524393,-97.2609
79995,El Paso,31.694842,-106.299987
75227,Dallas,32.77003,-96.69
75832,Cayuga,31.794191,-95.661964
76508,Temple,31.036287,-97.492017
77209,Houston,29.612816,-95.158517
79178,Amarillo,35.401475,-101.895089
76135,Fort Worth,32.823629,-97.45167
77845,College Station,30.571905,-96.29882
78012,Christine,28.790841,-98.496
79005,Booker,36.427031,-100.51097
76003,Arlington,32.741685,-97.225324
75243,Dallas,32.912225,-96.73688
76461,Lingleville,32.221433,-98.342798
78132,New Braunfels,29.749204,-98.17653
78234,San Antonio,29.457389,-98.45537
88575,El Paso,31.694842,-106.299987
77577,Liverpool,29.289673,-95.27709
77402,Bellaire,29.83399,-95.434241
76104,Fort Worth,32.730265,-97.32002
76364,Harrold,34.081642,-99.062
78059,Natalia,29.19085,-98.84676
88569,El Paso,31.694842,-106.299987
79415,Lubbock,33.62386,-101.88057
76820,Art,30.720372,-99.100089
79910,El Paso,31.694842,-106.299987
75339,Dallas,32.767268,-96.777626
75486,Sumner,33.734091,-95.76203
76638,Crawford,31.555885,-97.41024
77467,Pierce,29.238931,-96.1716
79096,Wheeler,35.459147,-100.20106
88583,El Paso,31.694842,-106.299987
75394,Dallas,32.767268,-96.777626
88589,El Paso,31.694842,-106.299987
76825,Brady,31.121411,-99.3407
77039,Houston,29.909123,-95.33683
77052,Houston,29.676829,-95.177587
77338,Humble,30.005691,-95.28488
77571,La Porte,29.666781,-95.04487
78288,San Antonio,29.437532,-98.461582
79765,Odessa,31.910706,-102.28644
76379,Scotland,33.646685,-98.48719
77470,Rock Island,29.520292,-96.57348
79517,Fluvanna,32.883354,-101.20597
76140,Fort Worth,32.630268,-97.27102
76240,Gainesville,33.627942,-97.13636
77067,Houston,29.952354,-95.45065
77080,Houston,29.816866,-95.52309
79163,Amarillo,35.401475,-101.895089
79316,Brownfield,33.153528,-102.29568
78663,Round Mountain,30.44858,-98.38421
79491,Lubbock,33.610018,-101.821292
88563,El Paso,31.694842,-106.299987
75855,Oakwood,31.579572,-95.85303
76649,Iredell,32.001365,-97.88196
76715,Waco,31.553646,-97.203166
75415,Ben Franklin,33.460447,-95.75734
76070,Nemo,32.259829,-97.65485
79712,Midland,31.869259,-102.031726
75968,Pineland,31.234368,-93.94399
77081,Houston,29.70828,-95.48361
77706,Beaumont,30.092679,-94.16377
77863,Lyons,30.359245,-96.591535
79527,Ira,32.584546,-101.06523
75442,Farmersville,33.171899,-96.35096
76053,Hurst,32.821378,-97.181
88590,El Paso,31.694842,-106.299987
78416,Corpus Christi,27.752356,-97.43465
75758,Chandler,32.251068,-95.49667
77011,Houston,29.742378,-95.30726
75653,Henderson,32.204724,-94.8845
75834,Centralia,31.105786,-95.138794
76182,North Richland Hills,32.771419,-97.291484
76690,Walnut Springs,32.078488,-97.76708
78264,San Antonio,29.193828,-98.51795
78954,Round Top,30.057137,-96.67796
76369,Kamay,34.023386,-98.687748
77551,Galveston,29.279937,-94.82683
77584,Pearland,29.543654,-95.34036
79321,Sudan,34.061309,-102.521814
75751,Athens,32.184027,-95.84625
76641,Frost,32.044273,-96.78624
77801,Bryan,30.637348,-96.36015
78731,Austin,30.344305,-97.7638
79955,El Paso,31.694842,-106.299987
75180,Mesquite,32.72203,-96.61634
75312,Dallas,32.767268,-96.777626
77386,Spring,30.128862,-95.41896
77486,West Columbia,29.152396,-95.66319
79350,New Deal,33.751374,-101.83672
79908,El Paso,31.912449,-106.32501
78229,San Antonio,29.499454,-98.57166
79066,Pampa,35.533384,-100.956013
75224,Dallas,32.716065,-96.83987
75454,Melissa,33.277317,-96.57345
75558,Cookville,33.236743,-94.84359
75691,Tatum,32.312616,-94.53692
75058,Gunter,33.453628,-96.73436
76673,Mount Calm,31.74658,-96.89776
77574,League City,29.511582,-95.058153
75846,Jewett,31.346581,-96.17433
77273,Houston,29.83399,-95.434241
76548,Harker Heights,31.068459,-97.65552
78228,San Antonio,29.457281,-98.5665
75421,Brookston,33.642542,-95.69761
79520,Hamlin,32.88019,-100.13583
79697,Abilene,32.302132,-99.890737
79914,El Paso,31.694842,-106.299987
76538,Jonesboro,31.629515,-97.90249
76941,Mertzon,31.330315,-100.93381
88570,El Paso,31.694842,-106.299987
78415,Corpus Christi,27.727083,-97.4289
76653,Kosse,31.304634,-96.61211
75061,Irving,32.826729,-96.9614
78744,Austin,30.188377,-97.74038
79241,Lockney,34.192619,-101.38934
77206,Houston,29.83399,-95.434241
78371,Oilton,27.467237,-98.97431
79252,Quanah,34.297126,-99.77713
79849,San Elizario,31.577344,-106.2672
75054,Grand Prairie,32.767268,-96.777626
75125,Ferris,32.533551,-96.65684
78801,Uvalde,29.252882,-99.8165
77411,Alief,29.83399,-95.434241
77522,Baytown,29.83399,-95.434241
78275,San Antonio,29.437532,-98.461582
78297,San Antonio,29.437532,-98.461582
78247,San Antonio,29.581304,-98.40889
78948,Lincoln,30.2984,-96.95358
79991,El Paso,31.694842,-106.299987
75303,Dallas,32.767268,-96.777626
79383,New Home,33.330983,-101.91065
75565,McLeod,32.950857,-94.07429
77089,Houston,29.589831,-95.22251
77460,Nada,29.60466,-96.524899
77063,Houston,29.734379,-95.52269
76101,Fort Worth,32.771419,-97.291484
77456,Markham,28.964146,-96.07346
78370,Odem,27.955312,-97.59288
79007,Borger,35.665899,-101.40666
76132,Fort Worth,32.670345,-97.4143
77457,Matagorda,28.67494,-95.9653
76446,Dublin,32.07881,-98.35073
75241,Dallas,32.669383,-96.77439
75286,Dallas,32.767268,-96.777626
75933,Call,30.580648,-93.81112
77230,Houston,29.83399,-95.434241
77326,Ace,30.519883,-94.81869
77876,Shiro,30.647831,-95.83191
78072,Tilden,28.314027,-98.49899
76866,Paint Rock,31.472654,-99.92215
79504,Baird,32.333638,-99.35055
77061,Houston,29.66028,-95.28446
77458,Midfield,28.939249,-96.2147
77459,Missouri City,29.564347,-95.54762
79929,El Paso,31.694842,-106.299987
75571,Omaha,33.183401,-94.75227
75682,New London,32.25416,-94.932215
77256,Houston,29.83399,-95.434241
78244,San Antonio,29.475598,-98.35434
78333,Alice,27.659473,-98.012331
76684,Ross,31.717293,-97.118754
77971,Lolita,28.853152,-96.52727
79530,Lawn,32.128112,-99.7639
75709,Tyler,32.31265,-95.39191
77069,Houston,29.984672,-95.52887
77982,Port O Connor,28.430193,-96.4417
78558,La Blanca,26.305113,-98.03375
75772,Maydelle,31.800846,-95.300142
76799,Waco,31.541116,-97.16148
77655,Sabine Pass,29.732092,-93.90117
77881,Wellborn,30.65212,-96.341012
78503,Mcallen,26.172018,-98.25042
75009,Celina,33.327927,-96.76129
75244,Dallas,32.922624,-96.83616
78597,South Padre Island,26.117636,-97.17019
77463,Old Ocean,29.135066,-95.78335
76661,Marlin,31.310649,-96.87859
78119,Kenedy,28.779344,-97.85626
77306,Conroe,30.289893,-95.32698
76248,Keller,32.92704,-97.2506
77051,Houston,29.66543,-95.36871
78783,Austin,30.326374,-97.771258
78377,Refugio,28.327234,-97.24787
78840,Del Rio,29.404267,-100.88116
75860,Teague,31.625567,-96.27068
77710,Beaumont,29.847569,-94.129733
79837,Dell City,31.937024,-105.19353
88567,El Paso,31.694842,-106.299987
76858,Melvin,31.230813,-99.62583
77261,Houston,29.83399,-95.434241
77503,Pasadena,29.695028,-95.15798
77643,Port Arthur,29.962144,-93.867932
78109,Converse,29.50198,-98.30582
76621,Abbott,31.884263,-97.08385
76685,Satin,31.35797,-97.02091
78024,Hunt,30.055926,-99.42213
77475,Sheridan,29.488245,-96.65185
78956,Schulenburg,29.680723,-96.91964
75017,Irving,32.767268,-96.777626
75706,Tyler,32.456565,-95.33155
75937,Chireno,31.467506,-94.37459
75253,Dallas,32.679924,-96.60367
77563,Hitchcock,29.339307,-95.00317
76006,Arlington,32.778047,-97.08088
77642,Port Arthur,29.921564,-93.92694
78832,Brackettville,29.313559,-100.42452
79904,El Paso,31.852156,-106.44181
79082,Springlake,34.209814,-102.29761
78006,Boerne,29.851666,-98.72932
79413,Lubbock,33.547735,-101.88881
75468,Pattonville,33.536414,-95.39817
76426,Bridgeport,33.197313,-97.80932
76821,Ballinger,31.754011,-99.93695
78058,Mountain Home,30.070414,-99.69191
78116,Gillett,29.112202,-97.78275
75261,Dallas,32.767268,-96.777626
76460,Loving,33.332336,-98.48413
76656,Lott,31.185062,-97.04389
77483,Wadsworth,28.83088,-95.93391
75039,Irving,32.876474,-96.94129
76873,Rockwood,31.51161,-99.37166
77340,Huntsville,30.680641,-95.50776
77375,Tomball,30.073775,-95.61882
78521,Brownsville,25.918758,-97.42739
79097,White Deer,35.432364,-101.16687
75152,Palmer,32.425222,-96.68103
78385,Sarita,27.17914,-97.82511
78390,Taft,27.977641,-97.37032
78406,Corpus Christi,27.776304,-97.51253
78612,Cedar Creek,30.130116,-97.49055
79041,Hale Center,34.043076,-101.89695
79503,Avoca,32.882154,-99.69298
79943,El Paso,31.694842,-106.299987
75409,Anna,33.356094,-96.51907
77562,Highlands,29.81953,-95.05298
76466,Olden,32.428128,-98.74853
77428,Collegeport,28.718954,-96.16969
79604,Abilene,32.428796,-99.795167
77249,Houston,29.83399,-95.434241
75060,Irving,32.80268,-96.95499
75117,Edgewood,32.696777,-95.86881
75211,Dallas,32.736931,-96.88253
75561,Hooks,33.480224,-94.2648
75760,Cushing,31.817889,-94.8631
76465,Morgan Mill,32.215275,-98.207997
88512,El Paso,31.694842,-106.299987
79944,El Paso,31.694842,-106.299987
77805,Bryan,30.65212,-96.341012
78101,Adkins,29.326804,-98.21887
78209,San Antonio,29.48618,-98.4568
78560,La Joya,26.244317,-98.49574
77583,Rosharon,29.429256,-95.45332
77903,Victoria,28.794935,-96.974119
76388,Weinert,33.336436,-99.64257
76705,Waco,31.609834,-97.08821
77485,Wallis,29.632221,-96.07144
79222,Carey,34.529678,-100.207642
79088,Tulia,34.541042,-101.72921
79601,Abilene,32.500532,-99.69803
75562,Kildare,32.941359,-94.25152
77298,Houston,29.83399,-95.434241
78461,Corpus Christi,27.777,-97.463213
79548,Rule,33.067644,-99.94686
76063,Mansfield,32.57701,-97.13485
88535,El Paso,31.694842,-106.299987
77414,Bay City,28.945269,-95.9357
79160,Amarillo,35.401475,-101.895089
77951,Bloomington,28.642875,-96.89172
78238,San Antonio,29.479874,-98.61509
79227,Crowell,33.929907,-99.74194
75411,Arthur City,33.86751,-95.60594
75218,Dallas,32.842726,-96.69937
75372,Dallas,32.767268,-96.777626
75599,Texarkana,33.476552,-94.39495
76365,Henrietta,33.761291,-98.19145
76654,Leroy,31.553646,-97.203166
77506,Pasadena,29.705678,-95.20216
79032,Edmonson,34.281443,-101.898
75395,Dallas,32.767268,-96.777626
75481,Sulphur Bluff,33.323467,-95.39168
79068,Panhandle,35.335288,-101.39752
78662,Red Rock,29.950887,-97.42728
79339,Littlefield,33.894823,-102.32282
79759,Notrees,31.840191,-102.74709
76264,Sadler,33.748414,-96.83792
77504,Pasadena,29.64878,-95.18813
75859,Streetman,31.889748,-96.25435
75391,Dallas,32.767268,-96.777626
77492,Katy,29.83399,-95.434241
78266,San Antonio,29.641132,-98.30856
78547,Garciasville,26.321652,-98.69525
79353,Pep,33.783555,-102.59146
78376,Realitos,27.363706,-98.56442
78962,Weimar,29.698373,-96.75932
79184,Amarillo,35.401475,-101.895089
88562,El Paso,31.694842,-106.299987
76618,Richland,31.930849,-96.429154
77292,Houston,29.744341,-95.332598
77043,Houston,29.802473,-95.5618
77542,Freeport,29.183991,-95.465083
76010,Arlington,32.723382,-97.08498
77536,Deer Park,29.687657,-95.1201
77538,Devers,29.981421,-94.55067
75203,Dallas,32.745831,-96.80672
78231,San Antonio,29.574677,-98.53946
78339,Banquete,27.807025,-97.79801
76861,Miles,31.58901,-100.1911
79947,El Paso,31.694842,-106.299987
75689,Selman City,32.1826,-94.935456
78217,San Antonio,29.543865,-98.41755
79452,Lubbock,33.610018,-101.821292
79499,Lubbock,33.610018,-101.821292
75266,Dallas,32.767268,-96.777626
76864,Mullin,31.561427,-98.73632
77341,Huntsville,30.714476,-95.54977
77619,Groves,29.947563,-93.91857
88528,El Paso,31.694842,-106.299987
76523,Davilla,30.785114,-97.28058
78829,Batesville,28.883474,-99.58416
78942,Giddings,30.182175,-96.93171
79255,Quitaque,34.362997,-101.05209
88527,El Paso,31.694842,-106.299987
